,Universidad,Facultad,Dirección,Nombre,Pais,Provincia,Municipio,lng,lat
0,Facultad Latinoamericana de Ciencias Sociales,Facultad Latinoamericana de Ciencias Sociales,Ayacucho 555 - Ciudad Autonoma de Buenos Aires - Ciudad Autonoma de Buenos Aires ,"Facultad Latinoamericana de Ciencias Sociales, Facultad Latinoamericana de Ciencias Sociales",ARG,Ciudad Autónoma de Buenos Aires,Ciudad de Buenos Aires,-58.39547,-34.60265
1,Instituto Tecnológico de Buenos Aires,Departamento de Petróleo,Av.Eduardo Madero 399 - Ciudad Autonoma de Buenos Aires - Ciudad Autonoma de Buenos Aires ,"Instituto Tecnológico de Buenos Aires, Departamento de Petróleo",ARG,Ciudad Autónoma de Buenos Aires,Ciudad de Buenos Aires,-58.36813,-34.60315
2,Instituto Tecnológico de Buenos Aires,Departamento de Posgrado,25 de mayo 444 - Ciudad Autonoma de Buenos Aires - Ciudad Autonoma de Buenos Aires ,"Instituto Tecnológico de Buenos Aires, Departamento de Posgrado",ARG,Ciudad Autónoma de Buenos Aires,Ciudad de Buenos Aires,-58.37114,-34.60259
3,Instituto Tecnológico de Buenos Aires,BIOINGENIERIA,Av.Eduardo Madero 399 - Ciudad Autonoma de Buenos Aires - Ciudad Autonoma de Buenos Aires ,"Instituto Tecnológico de Buenos Aires, BIOINGENIERIA",ARG,Ciudad Autónoma de Buenos Aires,Ciudad de Buenos Aires,-58.36813,-34.60315
4,Instituto Tecnológico de Buenos Aires,Departamento de Administración y Sistemas,Av.Eduardo Madero 399 - Ciudad Autonoma de Buenos Aires - Ciudad Autonoma de Buenos Aires ,"Instituto Tecnológico de Buenos Aires, Departamento de Administración y Sistemas",ARG,Ciudad Autónoma de Buenos Aires,Ciudad de Buenos Aires,-58.36813,-34.60315
5,Instituto Tecnológico de Buenos Aires,Departamento de Electrónica,Av.Eduardo Madero 399 - Ciudad Autonoma de Buenos Aires - Ciudad Autonoma de Buenos Aires ,"Instituto Tecnológico de Buenos Aires, Departamento de Electrónica",ARG,Ciudad Autónoma de Buenos Aires,Ciudad de Buenos Aires,-58.36813,-34.60315
6,Instituto Tecnológico de Buenos Aires,Departamento de Industrial,Av.Eduardo Madero 399 - Ciudad Autonoma de Buenos Aires - Ciudad Autonoma de Buenos Aires ,"Instituto Tecnológico de Buenos Aires, Departamento de Industrial",ARG,Ciudad Autónoma de Buenos Aires,Ciudad de Buenos Aires,-58.36813,-34.60315
7,Instituto Tecnológico de Buenos Aires,Departamento de Informática,Av.Eduardo Madero 399 - Ciudad Autonoma de Buenos Aires - Ciudad Autonoma de Buenos Aires ,"Instituto Tecnológico de Buenos Aires, Departamento de Informática",ARG,Ciudad Autónoma de Buenos Aires,Ciudad de Buenos Aires,-58.36813,-34.60315
8,Instituto Tecnológico de Buenos Aires,Departamento de Ingeniería Eléctrica,Av.Eduardo Madero 399 - Ciudad Autonoma de Buenos Aires - Ciudad Autonoma de Buenos Aires ,"Instituto Tecnológico de Buenos Aires, Departamento de Ingeniería Eléctrica",ARG,Ciudad Autónoma de Buenos Aires,Ciudad de Buenos Aires,-58.36813,-34.60315
9,Instituto Tecnológico de Buenos Aires,Departamento de Mecánica Naval,Av.Eduardo Madero 399 - Ciudad Autonoma de Buenos Aires - Ciudad Autonoma de Buenos Aires ,"Instituto Tecnológico de Buenos Aires, Departamento de Mecánica Naval",ARG,Ciudad Autónoma de Buenos Aires,Ciudad de Buenos Aires,-58.36813,-34.60315
10,Instituto Tecnológico de Buenos Aires,Departamento de Química,Av.Eduardo Madero 399 - Ciudad Autonoma de Buenos Aires - Ciudad Autonoma de Buenos Aires ,"Instituto Tecnológico de Buenos Aires, Departamento de Química",ARG,Ciudad Autónoma de Buenos Aires,Ciudad de Buenos Aires,-58.36813,-34.60315
11,Instituto Universitario Aeronáutico,Instituto de Inteligencia de las Fuerzas Armadas,Cabildo 381 - Ciudad Autonoma de Buenos Aires - Ciudad Autonoma de Buenos Aires ,"Instituto Universitario Aeronáutico, Instituto de Inteligencia de las Fuerzas Armadas",ARG,Ciudad Autónoma de Buenos Aires,Ciudad de Buenos Aires,-58.44631,-34.68477
12,Instituto Universitario Aeronáutico,Instituto Nacional de Derecho Aeronáutico y Espacial,Viamonte 153 - Ciudad Autonoma de Buenos Aires - Ciudad Autonoma de Buenos Aires ,"Instituto Universitario Aeronáutico, Instituto Nacional de Derecho Aeronáutico y Espacial",ARG,Ciudad Autónoma de Buenos Aires,Ciudad de Buenos Aires,-58.37032,-34.59946
13,Instituto Universitario CEMIC,Unidad Académica Escuela de Medicina,Av. E. Galván 4102 - Ciudad Autonoma de Buenos Aires - Ciudad Autonoma de Buenos Aires ,"Instituto Universitario CEMIC, Unidad Académica Escuela de Medicina",ARG,Ciudad Autónoma de Buenos Aires,Ciudad de Buenos Aires,-58.4952275,-34.5565348
14,Instituto Universitario CEMIC,Unidad Académica Instituto de Investigaciones,Av. E. Galván 4102 - Ciudad Autonoma de Buenos Aires - Ciudad Autonoma de Buenos Aires ,"Instituto Universitario CEMIC, Unidad Académica Instituto de Investigaciones",ARG,Ciudad Autónoma de Buenos Aires,Ciudad de Buenos Aires,-58.4952275,-34.5565348
15,Instituto Universitario de Ciencias de la Salud de la Fundación Barceló,Facultad de Medicina,Las Heras 2191 - Ciudad Autonoma de Buenos Aires - Ciudad Autonoma de Buenos Aires ,"Instituto Universitario de Ciencias de la Salud de la Fundación Barceló, Facultad de Medicina",ARG,Ciudad Autónoma de Buenos Aires,Ciudad de Buenos Aires,-58.44631,-34.68477
16,Instituto Universitario de Gendarmería Nacional,Unidad Académica de Grado y Posgrado Escuela Superior Gral. de Brig. Manuel María Calderón,Av. Paseo Colón 533 - Ciudad Autonoma de Buenos Aires - Ciudad Autonoma de Buenos Aires ,"Instituto Universitario de Gendarmería Nacional, Unidad Académica de Grado y Posgrado Escuela Superior Gral. de Brig. Manuel María Calderón",ARG,Ciudad Autónoma de Buenos Aires,Ciudad de Buenos Aires,-58.36947,-34.61421
17,Instituto Universitario de Gendarmería Nacional,"Unidad Académica de Pregrado Escuela de Suboficiales de Gendarmería ""Cabo Raúl Remberto Cuello""",Av. Paseo Colón 533 - Ciudad Autonoma de Buenos Aires - Ciudad Autonoma de Buenos Aires ,"Instituto Universitario de Gendarmería Nacional, Unidad Académica de Pregrado Escuela de Suboficiales de Gendarmería ""Cabo Raúl Remberto Cuello""",ARG,Ciudad Autónoma de Buenos Aires,Ciudad de Buenos Aires,-58.36947,-34.61421
18,Instituto Universitario de Gendarmería Nacional,Unidad Académica General Don Martín Miguel de Güemes,Av. Paseo Colón 533 - Ciudad Autonoma de Buenos Aires - Ciudad Autonoma de Buenos Aires ,"Instituto Universitario de Gendarmería Nacional, Unidad Académica General Don Martín Miguel de Güemes",ARG,Ciudad Autónoma de Buenos Aires,Ciudad de Buenos Aires,-58.36947,-34.61421
19,Instituto Universitario de la Policía Federal Argentina,Escuela de Cadetes Comisario General Juan Ángel Pirker,Corvalan 3698 - Ciudad Autonoma de Buenos Aires - Ciudad Autonoma de Buenos Aires ,"Instituto Universitario de la Policía Federal Argentina, Escuela de Cadetes Comisario General Juan Ángel Pirker",ARG,Ciudad Autónoma de Buenos Aires,Ciudad de Buenos Aires,-58.467795,-34.6714685
20,Instituto Universitario de la Policía Federal Argentina,Unidad Académica de Formación de Grado,Av. Paseo Colón 533 - Ciudad Autonoma de Buenos Aires - Ciudad Autonoma de Buenos Aires ,"Instituto Universitario de la Policía Federal Argentina, Unidad Académica de Formación de Grado",ARG,Ciudad Autónoma de Buenos Aires,Ciudad de Buenos Aires,-58.36947,-34.61421
21,Instituto Universitario de Salud Mental de la Asociación Psicoanalítica de Buenos Aires,Área Cultura,Maure 1850 - Ciudad Autonoma de Buenos Aires - Ciudad Autonoma de Buenos Aires ,"Instituto Universitario de Salud Mental de la Asociación Psicoanalítica de Buenos Aires, Área Cultura",ARG,Ciudad Autónoma de Buenos Aires,Ciudad de Buenos Aires,-58.437,-34.56794
22,Instituto Universitario de Salud Mental de la Asociación Psicoanalítica de Buenos Aires,Área Psicoanálisis,Maure 1850 - Ciudad Autonoma de Buenos Aires - Ciudad Autonoma de Buenos Aires ,"Instituto Universitario de Salud Mental de la Asociación Psicoanalítica de Buenos Aires, Área Psicoanálisis",ARG,Ciudad Autónoma de Buenos Aires,Ciudad de Buenos Aires,-58.437,-34.56794
23,Instituto Universitario de Salud Mental de la Asociación Psicoanalítica de Buenos Aires,Área Psicopatología,Maure 1850 - Ciudad Autonoma de Buenos Aires - Ciudad Autonoma de Buenos Aires ,"Instituto Universitario de Salud Mental de la Asociación Psicoanalítica de Buenos Aires, Área Psicopatología",ARG,Ciudad Autónoma de Buenos Aires,Ciudad de Buenos Aires,-58.437,-34.56794
24,Instituto Universitario de Seguridad Marítima,Departamento Académico Escuela de Oficiales,Cro. Gral. Belgrano 302 - Zarate - Buenos Aires ,"Instituto Universitario de Seguridad Marítima, Departamento Académico Escuela de Oficiales",ARG,Buenos Aires,Zárate,-59.0199532,-34.0940568
25,Instituto Universitario de Seguridad Marítima,Departamento Académico Escuela de Suboficiales,Cro. Gral. Belgrano 302 - Zarate - Buenos Aires ,"Instituto Universitario de Seguridad Marítima, Departamento Académico Escuela de Suboficiales",ARG,Buenos Aires,Zárate,-59.0199532,-34.0940568
26,Instituto Universitario de Seguridad Marítima,"Instituto de Formación, Capacitación, Perfeccionamiento y Actualización Docente",Cro. Gral. Belgrano 302 - Zarate - Buenos Aires ,"Instituto Universitario de Seguridad Marítima, Instituto de Formación, Capacitación, Perfeccionamiento y Actualización Docente",ARG,Buenos Aires,Zárate,-59.0199532,-34.0940568
27,"Instituto Universitario del Ejército ""Mayor Francisco Romero""",Unidad Académica Escuela Superior de Guerra,Av Luis María Campos 480 - Ciudad Autonoma de Buenos Aires - Ciudad Autonoma de Buenos Aires ,"Instituto Universitario del Ejército ""Mayor Francisco Romero"", Unidad Académica Escuela Superior de Guerra",ARG,Ciudad Autónoma de Buenos Aires,Ciudad de Buenos Aires,-58.4338789,-34.5721833
28,"Instituto Universitario del Ejército ""Mayor Francisco Romero""",Unidad Académica Colegio Militar de la Nación,Av Cabildo 65 - Ciudad Autonoma de Buenos Aires - Ciudad Autonoma de Buenos Aires ,"Instituto Universitario del Ejército ""Mayor Francisco Romero"", Unidad Académica Colegio Militar de la Nación",ARG,Ciudad Autónoma de Buenos Aires,Ciudad de Buenos Aires,-58.43662,-34.57426
29,"Instituto Universitario del Ejército ""Mayor Francisco Romero""",Unidad Académica Escuela Superior Técnica,Av Cabildo 65 - Ciudad Autonoma de Buenos Aires - Ciudad Autonoma de Buenos Aires ,"Instituto Universitario del Ejército ""Mayor Francisco Romero"", Unidad Académica Escuela Superior Técnica",ARG,Ciudad Autónoma de Buenos Aires,Ciudad de Buenos Aires,-58.43662,-34.57426
30,Instituto Universitario Escuela Argentina de Negocios,Unidad Académica Provincia de Buenos Aires - Sede Martínez,Av. Santa Fe 2162 - Martinez - Buenos Aires ,"Instituto Universitario Escuela Argentina de Negocios, Unidad Académica Provincia de Buenos Aires - Sede Martínez",ARG,Buenos Aires,San Isidro,-58.4998979,-34.4907493
31,Instituto Universitario Escuela Argentina de Negocios,Unidad Académica Capital Federal - Sede Central,Av. Cordoba 1690 - Ciudad Autonoma de Buenos Aires - Ciudad Autonoma de Buenos Aires ,"Instituto Universitario Escuela Argentina de Negocios, Unidad Académica Capital Federal - Sede Central",ARG,Ciudad Autónoma de Buenos Aires,Ciudad de Buenos Aires,-58.3912,-34.59959
32,Instituto Universitario Escuela de Medicina del Hospital Italiano,Instituto Universitario Escuela de Medicina del Hospital Italiano - UA,Potosi 4240 - Ciudad Autonoma de Buenos Aires - Ciudad Autonoma de Buenos Aires ,"Instituto Universitario Escuela de Medicina del Hospital Italiano, Instituto Universitario Escuela de Medicina del Hospital Italiano - UA",ARG,Ciudad Autónoma de Buenos Aires,Ciudad de Buenos Aires,-58.42681,-34.60728
33,Instituto Universitario Escuela Superior de Economía y Administración de Empresas,Sede Central,Uriarte 2472 - Ciudad Autonoma de Buenos Aires - Ciudad Autonoma de Buenos Aires ,"Instituto Universitario Escuela Superior de Economía y Administración de Empresas, Sede Central",ARG,Ciudad Autónoma de Buenos Aires,Ciudad de Buenos Aires,-58.42301,-34.58092
34,"Instituto Universitario Nacional de Derechos Humanos ""Madres de Plaza de Mayo""",Departamento de Humanidades,25 Mayo 544 - Ciudad Autonoma de Buenos Aires - Ciudad Autonoma de Buenos Aires ,"Instituto Universitario Nacional de Derechos Humanos ""Madres de Plaza de Mayo"", Departamento de Humanidades",ARG,Ciudad Autónoma de Buenos Aires,Ciudad de Buenos Aires,-58.37122,-34.60147
35,"Instituto Universitario Nacional de Derechos Humanos ""Madres de Plaza de Mayo""",Departamento de Ciencias Sociales,25 Mayo 544 - Ciudad Autonoma de Buenos Aires - Ciudad Autonoma de Buenos Aires ,"Instituto Universitario Nacional de Derechos Humanos ""Madres de Plaza de Mayo"", Departamento de Ciencias Sociales",ARG,Ciudad Autónoma de Buenos Aires,Ciudad de Buenos Aires,-58.37122,-34.60147
36,Instituto Universitario Nacional del Arte,Carreras de Formación Docente,Bolívar 1674 - Ciudad Autonoma de Buenos Aires - Ciudad Autonoma de Buenos Aires ,"Instituto Universitario Nacional del Arte, Carreras de Formación Docente",ARG,Ciudad Autónoma de Buenos Aires,Ciudad de Buenos Aires,-58.3724,-34.62788
37,Instituto Universitario Nacional del Arte,Departamento de Artes Musicales y Sonoras Carlos Lopez Buchardo,Avda Cordoba 2445 - Ciudad Autonoma de Buenos Aires - Ciudad Autonoma de Buenos Aires ,"Instituto Universitario Nacional del Arte, Departamento de Artes Musicales y Sonoras Carlos Lopez Buchardo",ARG,Ciudad Autónoma de Buenos Aires,Ciudad de Buenos Aires,-58.40186,-34.5994
38,Instituto Universitario Nacional del Arte,Area Transdepartamental de Crítica del Arte,Bartolomé Mitre 1869. C1039AAA. Ciudad Autónoma de Buenos Aires,"Instituto Universitario Nacional del Arte, Area Transdepartamental de Crítica del Arte",ARG,Ciudad Autónoma de Buenos Aires,Ciudad de Buenos Aires,-58.39301,-34.60806
39,Instituto Universitario Nacional del Arte,Carreras de Folklore,Sánchez de Loria 443. C1173ACI. Ciudad Autónoma de Buenos Aires,"Instituto Universitario Nacional del Arte, Carreras de Folklore",ARG,Ciudad Autónoma de Buenos Aires,Ciudad de Buenos Aires,-58.41285,-34.61474
40,Instituto Universitario Nacional del Arte,Departamento de Artes Audiovisuales,Rocamora 4141. C1184ABC Ciudad Autónoma de Buenos Aires,"Instituto Universitario Nacional del Arte, Departamento de Artes Audiovisuales",ARG,Ciudad Autónoma de Buenos Aires,Ciudad de Buenos Aires,-58.42267,-34.59927
41,Instituto Universitario Nacional del Arte,Departamento de Artes del Movimiento Maria Ruanova,Sánchez de Loria 443. C1173ACI. Ciudad Autónoma de Buenos Aires,"Instituto Universitario Nacional del Arte, Departamento de Artes del Movimiento Maria Ruanova",ARG,Ciudad Autónoma de Buenos Aires,Ciudad de Buenos Aires,-58.41285,-34.61474
42,Instituto Universitario Nacional del Arte,Departamento de Artes Dramáticas Antonio Cunill Cabanellas,French 3614 (C1425AXD) Ciudad Autónoma de Buenos Aires,"Instituto Universitario Nacional del Arte, Departamento de Artes Dramáticas Antonio Cunill Cabanellas",ARG,Ciudad Autónoma de Buenos Aires,Ciudad de Buenos Aires,-58.41166,-34.58308
43,Instituto Universitario Nacional del Arte,Departamento de Artes Visuales Prilidiano Pueyrredón,Av. General Las Heras 1749. C1018AAB. Ciudad Autónoma de Buenos Aires,"Instituto Universitario Nacional del Arte, Departamento de Artes Visuales Prilidiano Pueyrredón",ARG,Ciudad Autónoma de Buenos Aires,Ciudad de Buenos Aires,-58.39133,-34.5922399
44,Instituto Universitario Nacional del Arte,Rectorado,Azcuénaga 1129. Ciudad Autónoma de Buenos Aires,"Instituto Universitario Nacional del Arte, Rectorado",ARG,Ciudad Autónoma de Buenos Aires,Ciudad de Buenos Aires,-58.39979,-34.59483
45,Instituto Universitario Naval,Unidad Académica Escuela de Ciencias del Mar,Av. Antartida Argentina 1201 - Ciudad Autonoma de Buenos Aires - Ciudad Autonoma de Buenos Aires ,"Instituto Universitario Naval, Unidad Académica Escuela de Ciencias del Mar",ARG,Ciudad Autónoma de Buenos Aires,Ciudad de Buenos Aires,-58.37168,-34.5872699
46,Instituto Universitario Naval,Unidad Académica Escuela Nacional de Nautica,Antartida Argentina 1535 - Ciudad Autonoma de Buenos Aires - Ciudad Autonoma de Buenos Aires ,"Instituto Universitario Naval, Unidad Académica Escuela Nacional de Nautica",ARG,Ciudad Autónoma de Buenos Aires,Ciudad de Buenos Aires,-58.44631,-34.68477
48,Instituto Universitario River Plate,Departamento de Economia y Administracion del Deporte,Figueroa Alcorta 7597 - Ciudad Autonoma de Buenos Aires - Ciudad Autonoma de Buenos Aires ,"Instituto Universitario River Plate, Departamento de Economia y Administracion del Deporte",ARG,Ciudad Autónoma de Buenos Aires,Ciudad de Buenos Aires,-58.37344,-34.6085
49,Instituto Universitario River Plate,Departamento de Educacion y Deporte,Figueroa Alcorta 7597 - Ciudad Autonoma de Buenos Aires - Ciudad Autonoma de Buenos Aires ,"Instituto Universitario River Plate, Departamento de Educacion y Deporte",ARG,Ciudad Autónoma de Buenos Aires,Ciudad de Buenos Aires,-58.37344,-34.6085
50,Pontificia Universidad Católica Argentina Santa María de los Buenos Aires,Facultad de Teología,Concordia 4422 - Ciudad Autonoma de Buenos Aires - Ciudad Autonoma de Buenos Aires ,"Pontificia Universidad Católica Argentina Santa María de los Buenos Aires, Facultad de Teología",ARG,Ciudad Autónoma de Buenos Aires,Ciudad de Buenos Aires,-58.5083143,-34.5932297
51,Pontificia Universidad Católica Argentina Santa María de los Buenos Aires,Facultad de Artes y Ciencias Musicales,Av. Alicia Moreau de Justo 1500 - Ciudad Autonoma de Buenos Aires - Ciudad Autonoma de Buenos Aires ,"Pontificia Universidad Católica Argentina Santa María de los Buenos Aires, Facultad de Artes y Ciencias Musicales",ARG,Ciudad Autónoma de Buenos Aires,Ciudad de Buenos Aires,-58.36597,-34.61572
52,Pontificia Universidad Católica Argentina Santa María de los Buenos Aires,Facultad de Ciencias Médicas,Av. Alicia Moreau de Justo 1600 - Ciudad Autonoma de Buenos Aires - Ciudad Autonoma de Buenos Aires ,"Pontificia Universidad Católica Argentina Santa María de los Buenos Aires, Facultad de Ciencias Médicas",ARG,Ciudad Autónoma de Buenos Aires,Ciudad de Buenos Aires,-58.36585,-34.617
53,Pontificia Universidad Católica Argentina Santa María de los Buenos Aires,Facultad de Ciencias Sociales,Av. Alicia Moreau de Justo 1500 - Ciudad Autonoma de Buenos Aires - Ciudad Autonoma de Buenos Aires ,"Pontificia Universidad Católica Argentina Santa María de los Buenos Aires, Facultad de Ciencias Sociales",ARG,Ciudad Autónoma de Buenos Aires,Ciudad de Buenos Aires,-58.36597,-34.61572
54,Pontificia Universidad Católica Argentina Santa María de los Buenos Aires,Facultad de Derecho,Av. Alicia Moreau de Justo 1400 - Ciudad Autonoma de Buenos Aires - Ciudad Autonoma de Buenos Aires ,"Pontificia Universidad Católica Argentina Santa María de los Buenos Aires, Facultad de Derecho",ARG,Ciudad Autónoma de Buenos Aires,Ciudad de Buenos Aires,-58.36613,-34.61446
55,Pontificia Universidad Católica Argentina Santa María de los Buenos Aires,Facultad de Psicología y Psicopedagogía,Av. Alicia Moreau de Justo 1500 - Ciudad Autonoma de Buenos Aires - Ciudad Autonoma de Buenos Aires ,"Pontificia Universidad Católica Argentina Santa María de los Buenos Aires, Facultad de Psicología y Psicopedagogía",ARG,Ciudad Autónoma de Buenos Aires,Ciudad de Buenos Aires,-58.36597,-34.61572
56,Pontificia Universidad Católica Argentina Santa María de los Buenos Aires,Facultad de Ciencias Económicas,Alicia Moreau de Justo 1400 - Ciudad Autonoma de Buenos Aires - Ciudad Autonoma de Buenos Aires ,"Pontificia Universidad Católica Argentina Santa María de los Buenos Aires, Facultad de Ciencias Económicas",ARG,Ciudad Autónoma de Buenos Aires,Ciudad de Buenos Aires,-58.36495,-34.6237799
57,Pontificia Universidad Católica Argentina Santa María de los Buenos Aires,Facultad de Filosofía y Letras,Av.Alicia Moreau de 1500 - Ciudad Autonoma de Buenos Aires - Ciudad Autonoma de Buenos Aires ,"Pontificia Universidad Católica Argentina Santa María de los Buenos Aires, Facultad de Filosofía y Letras",ARG,Ciudad Autónoma de Buenos Aires,Ciudad de Buenos Aires,-58.36495,-34.6237799
58,Pontificia Universidad Católica Argentina Santa María de los Buenos Aires,Centro Regional Pergamino,"Pasteur 68, Pergamino, Pcia de Buenos Aires, Argentina","Pontificia Universidad Católica Argentina Santa María de los Buenos Aires, Centro Regional Pergamino",ARG,Buenos Aires,Pergamino,-60.5705881,-33.8890633
59,Pontificia Universidad Católica Argentina Santa María de los Buenos Aires,Facultad de Derecho Canónico,Av. Alicia Moreau de Justo 1600 - Ciudad Autonoma de Buenos Aires - Ciudad Autonoma de Buenos Aires ,"Pontificia Universidad Católica Argentina Santa María de los Buenos Aires, Facultad de Derecho Canónico",ARG,Ciudad Autónoma de Buenos Aires,Ciudad de Buenos Aires,-58.36585,-34.617
60,Universidad Abierta Interamericana,Facultad de Ciencias de la Comunicación,San Juan 951 - Ciudad Autonoma de Buenos Aires - Ciudad Autonoma de Buenos Aires ,"Universidad Abierta Interamericana, Facultad de Ciencias de la Comunicación",ARG,Ciudad Autónoma de Buenos Aires,Ciudad de Buenos Aires,-58.4479152,-34.5704449
61,Universidad Abierta Interamericana,Facultad de Ciencias Empresariales,San Juan 951 - Ciudad Autonoma de Buenos Aires - Ciudad Autonoma de Buenos Aires ,"Universidad Abierta Interamericana, Facultad de Ciencias Empresariales",ARG,Ciudad Autónoma de Buenos Aires,Ciudad de Buenos Aires,-58.4479152,-34.5704449
62,Universidad Abierta Interamericana,Facultad de Desarrollo e Investigación Educativos,San Juan 951 - Ciudad Autonoma de Buenos Aires - Ciudad Autonoma de Buenos Aires ,"Universidad Abierta Interamericana, Facultad de Desarrollo e Investigación Educativos",ARG,Ciudad Autónoma de Buenos Aires,Ciudad de Buenos Aires,-58.4479152,-34.5704449
63,Universidad Abierta Interamericana,Facultad de Medicina y Ciencias de la Salud,San Juan 951 - Ciudad Autonoma de Buenos Aires - Ciudad Autonoma de Buenos Aires ,"Universidad Abierta Interamericana, Facultad de Medicina y Ciencias de la Salud",ARG,Ciudad Autónoma de Buenos Aires,Ciudad de Buenos Aires,-58.4479152,-34.5704449
64,Universidad Abierta Interamericana,Facultad de Psicología y Relaciones Humanas,San Juan 951 - Ciudad Autonoma de Buenos Aires - Ciudad Autonoma de Buenos Aires ,"Universidad Abierta Interamericana, Facultad de Psicología y Relaciones Humanas",ARG,Ciudad Autónoma de Buenos Aires,Ciudad de Buenos Aires,-58.4479152,-34.5704449
65,Universidad Abierta Interamericana,Facultad de Motricidad Humana y Deportes,San Juan 951 - Ciudad Autonoma de Buenos Aires - Ciudad Autonoma de Buenos Aires ,"Universidad Abierta Interamericana, Facultad de Motricidad Humana y Deportes",ARG,Ciudad Autónoma de Buenos Aires,Ciudad de Buenos Aires,-58.4479152,-34.5704449
66,Universidad Abierta Interamericana,Facultad de Arquitectura.,San Juan 951 - Ciudad Autonoma de Buenos Aires - Ciudad Autonoma de Buenos Aires ,"Universidad Abierta Interamericana, Facultad de Arquitectura.",ARG,Ciudad Autónoma de Buenos Aires,Ciudad de Buenos Aires,-58.4479152,-34.5704449
67,Universidad Abierta Interamericana,Facultad de Derecho y Ciencias Políticas,San Juan 951 - Ciudad Autonoma de Buenos Aires - Ciudad Autonoma de Buenos Aires ,"Universidad Abierta Interamericana, Facultad de Derecho y Ciencias Políticas",ARG,Ciudad Autónoma de Buenos Aires,Ciudad de Buenos Aires,-58.4479152,-34.5704449
68,Universidad Abierta Interamericana,Facultad de Tecnología Informática,San Juan 951 - Ciudad Autonoma de Buenos Aires - Ciudad Autonoma de Buenos Aires ,"Universidad Abierta Interamericana, Facultad de Tecnología Informática",ARG,Ciudad Autónoma de Buenos Aires,Ciudad de Buenos Aires,-58.4479152,-34.5704449
69,Universidad Abierta Interamericana,Facultad de Turismo y Hospitalidad,San Juan 951 - Ciudad Autonoma de Buenos Aires - Ciudad Autonoma de Buenos Aires ,"Universidad Abierta Interamericana, Facultad de Turismo y Hospitalidad",ARG,Ciudad Autónoma de Buenos Aires,Ciudad de Buenos Aires,-58.4479152,-34.5704449
70,Universidad Argentina de la Empresa,Escuela de Dirección de Empresas,Libertad 1340 - Ciudad Autonoma de Buenos Aires - Ciudad Autonoma de Buenos Aires ,"Universidad Argentina de la Empresa, Escuela de Dirección de Empresas",ARG,Ciudad Autónoma de Buenos Aires,Ciudad de Buenos Aires,-58.38439,-34.59202
71,Universidad Argentina de la Empresa,Facultad de Ciencias Económicas,Lima 717 - Ciudad Autonoma de Buenos Aires - Ciudad Autonoma de Buenos Aires ,"Universidad Argentina de la Empresa, Facultad de Ciencias Económicas",ARG,Ciudad Autónoma de Buenos Aires,Ciudad de Buenos Aires,-58.38156,-34.617
72,Universidad Argentina de la Empresa,Facultad de Administración y Negocios,Lima 717 - Ciudad Autonoma de Buenos Aires - Ciudad Autonoma de Buenos Aires ,"Universidad Argentina de la Empresa, Facultad de Administración y Negocios",ARG,Ciudad Autónoma de Buenos Aires,Ciudad de Buenos Aires,-58.38156,-34.617
73,Universidad Argentina de la Empresa,Facultad de Arquitectura y Diseño,Lima 717 - Ciudad Autonoma de Buenos Aires - Ciudad Autonoma de Buenos Aires ,"Universidad Argentina de la Empresa, Facultad de Arquitectura y Diseño",ARG,Ciudad Autónoma de Buenos Aires,Ciudad de Buenos Aires,-58.38156,-34.617
74,Universidad Argentina de la Empresa,Facultad de Ciencias Jurídicas y Sociales,Lima 717 - Ciudad Autonoma de Buenos Aires - Ciudad Autonoma de Buenos Aires ,"Universidad Argentina de la Empresa, Facultad de Ciencias Jurídicas y Sociales",ARG,Ciudad Autónoma de Buenos Aires,Ciudad de Buenos Aires,-58.38156,-34.617
75,Universidad Argentina de la Empresa,Facultad de Comunicación,Lima 717 - Ciudad Autonoma de Buenos Aires - Ciudad Autonoma de Buenos Aires ,"Universidad Argentina de la Empresa, Facultad de Comunicación",ARG,Ciudad Autónoma de Buenos Aires,Ciudad de Buenos Aires,-58.38156,-34.617
76,Universidad Argentina de la Empresa,Facultad de Comunicación y Diseño,Lima 717 - Ciudad Autonoma de Buenos Aires - Ciudad Autonoma de Buenos Aires ,"Universidad Argentina de la Empresa, Facultad de Comunicación y Diseño",ARG,Ciudad Autónoma de Buenos Aires,Ciudad de Buenos Aires,-58.38156,-34.617
77,Universidad Argentina de la Empresa,Facultad de Ingeniería y Ciencias Exactas,Lima 717 - Ciudad Autonoma de Buenos Aires - Ciudad Autonoma de Buenos Aires ,"Universidad Argentina de la Empresa, Facultad de Ingeniería y Ciencias Exactas",ARG,Ciudad Autónoma de Buenos Aires,Ciudad de Buenos Aires,-58.38156,-34.617
78,Universidad Argentina John F. Kennedy,Escuela de Sistemas,Bartolomé Mitre 1411 - Ciudad Autonoma de Buenos Aires - Ciudad Autonoma de Buenos Aires ,"Universidad Argentina John F. Kennedy, Escuela de Sistemas",ARG,Ciudad Autónoma de Buenos Aires,Ciudad de Buenos Aires,-58.3865,-34.60765
79,Universidad Argentina John F. Kennedy,Facultad de Ciencias de la Salud,Bartolomé Mitre 1411 - Ciudad Autonoma de Buenos Aires - Ciudad Autonoma de Buenos Aires ,"Universidad Argentina John F. Kennedy, Facultad de Ciencias de la Salud",ARG,Ciudad Autónoma de Buenos Aires,Ciudad de Buenos Aires,-58.3865,-34.60765
80,Universidad Argentina John F. Kennedy,Facultad de Ciencias Económicas y Empresariales,Bartolomé Mitre 1411 - Ciudad Autonoma de Buenos Aires - Ciudad Autonoma de Buenos Aires ,"Universidad Argentina John F. Kennedy, Facultad de Ciencias Económicas y Empresariales",ARG,Ciudad Autónoma de Buenos Aires,Ciudad de Buenos Aires,-58.3865,-34.60765
81,Universidad Argentina John F. Kennedy,Facultad de Ciencias Psicológicas,Bartolomé Mitre 1411 - Ciudad Autonoma de Buenos Aires - Ciudad Autonoma de Buenos Aires ,"Universidad Argentina John F. Kennedy, Facultad de Ciencias Psicológicas",ARG,Ciudad Autónoma de Buenos Aires,Ciudad de Buenos Aires,-58.3865,-34.60765
82,Universidad Argentina John F. Kennedy,"Facultad de Ciencias Sociales, Jurídicas y Humanas",Bartolomé Mitre 1411 - Ciudad Autonoma de Buenos Aires - Ciudad Autonoma de Buenos Aires ,"Universidad Argentina John F. Kennedy, Facultad de Ciencias Sociales, Jurídicas y Humanas",ARG,Ciudad Autónoma de Buenos Aires,Ciudad de Buenos Aires,-58.3865,-34.60765
83,Universidad Argentina John F. Kennedy,Escuela de Arquitectura,Bartolomé Mitre 1411 - Ciudad Autonoma de Buenos Aires - Ciudad Autonoma de Buenos Aires ,"Universidad Argentina John F. Kennedy, Escuela de Arquitectura",ARG,Ciudad Autónoma de Buenos Aires,Ciudad de Buenos Aires,-58.3865,-34.60765
84,Universidad Austral,Facultad de Ciencias Biomédicas,Juan Domingo Perón 1500 -ex - Pilar - Buenos Aires ,"Universidad Austral, Facultad de Ciencias Biomédicas",ARG,Buenos Aires,Pilar,-58.772465,-34.4556288
85,Universidad Austral,Facultad de Ingeniería,Mariano Acosta 1901 - Ciudad Autonoma de Buenos Aires - Ciudad Autonoma de Buenos Aires ,"Universidad Austral, Facultad de Ingeniería",ARG,Ciudad Autónoma de Buenos Aires,Ciudad de Buenos Aires,-58.4621604,-34.6499097
86,Universidad Austral,Escuela de Educación,Cerrito 1250 - Ciudad Autonoma de Buenos Aires - Ciudad Autonoma de Buenos Aires ,"Universidad Austral, Escuela de Educación",ARG,Ciudad Autónoma de Buenos Aires,Ciudad de Buenos Aires,-58.38275,-34.59351
87,Universidad Austral,Facultad de Comunicación,Cerrito 1250 - Ciudad Autonoma de Buenos Aires - Ciudad Autonoma de Buenos Aires ,"Universidad Austral, Facultad de Comunicación",ARG,Ciudad Autónoma de Buenos Aires,Ciudad de Buenos Aires,-58.38275,-34.59351
88,Universidad Austral,Facultad de Derecho,Cerrito 1250 - Ciudad Autonoma de Buenos Aires - Ciudad Autonoma de Buenos Aires ,"Universidad Austral, Facultad de Derecho",ARG,Ciudad Autónoma de Buenos Aires,Ciudad de Buenos Aires,-58.38275,-34.59351
89,Universidad Austral,Instituto de Ciencias para la Familia,Mariano Acosta 1611 - Ciudad Autonoma de Buenos Aires - Ciudad Autonoma de Buenos Aires ,"Universidad Austral, Instituto de Ciencias para la Familia",ARG,Ciudad Autónoma de Buenos Aires,Ciudad de Buenos Aires,-58.4638256,-34.6486008
90,Universidad Austral,Facultad de Ciencias Empresariales,Cerrito 1250 - Ciudad Autonoma de Buenos Aires - Ciudad Autonoma de Buenos Aires ,"Universidad Austral, Facultad de Ciencias Empresariales",ARG,Ciudad Autónoma de Buenos Aires,Ciudad de Buenos Aires,-58.38275,-34.59351
91,Universidad Austral,Escuela de Dirección y Negocios,Cerrito 1250 - Ciudad Autonoma de Buenos Aires - Ciudad Autonoma de Buenos Aires ,"Universidad Austral, Escuela de Dirección y Negocios",ARG,Ciudad Autónoma de Buenos Aires,Ciudad de Buenos Aires,-58.38275,-34.59351
92,Universidad CAECE,Departamento de Humanidades y Ciencias Sociales,Av. de Mayo 866 - Ciudad Autonoma de Buenos Aires - Ciudad Autonoma de Buenos Aires ,"Universidad CAECE, Departamento de Humanidades y Ciencias Sociales",ARG,Ciudad Autónoma de Buenos Aires,Ciudad de Buenos Aires,-58.37873,-34.60889
93,Universidad CAECE,Departamento de Psicología y Ciencias Pedagógicas,Junín 516 - Ciudad Autonoma de Buenos Aires - Ciudad Autonoma de Buenos Aires ,"Universidad CAECE, Departamento de Psicología y Ciencias Pedagógicas",ARG,Ciudad Autónoma de Buenos Aires,Ciudad de Buenos Aires,-58.39694,-34.60304
94,Universidad CAECE,Departamento de Sistemas,Av. de Mayo 866 - Ciudad Autonoma de Buenos Aires - Ciudad Autonoma de Buenos Aires ,"Universidad CAECE, Departamento de Sistemas",ARG,Ciudad Autónoma de Buenos Aires,Ciudad de Buenos Aires,-58.37873,-34.60889
95,Universidad CAECE,Departamento de Administración y Ciencias Sociales,Av. de Mayo 866 - Ciudad Autonoma de Buenos Aires - Ciudad Autonoma de Buenos Aires ,"Universidad CAECE, Departamento de Administración y Ciencias Sociales",ARG,Ciudad Autónoma de Buenos Aires,Ciudad de Buenos Aires,-58.37873,-34.60889
96,Universidad CAECE,Departamento de Ciencias Biológicas,Junín 516 - Ciudad Autonoma de Buenos Aires - Ciudad Autonoma de Buenos Aires ,"Universidad CAECE, Departamento de Ciencias Biológicas",ARG,Ciudad Autónoma de Buenos Aires,Ciudad de Buenos Aires,-58.39694,-34.60304
97,Universidad CAECE,Departamento de Matemáticas,Av. de Mayo 866 - Ciudad Autonoma de Buenos Aires - Ciudad Autonoma de Buenos Aires ,"Universidad CAECE, Departamento de Matemáticas",ARG,Ciudad Autónoma de Buenos Aires,Ciudad de Buenos Aires,-58.37873,-34.60889
98,Universidad Católica de La Plata,Facultad de Derecho y Ciencias Políticas,57 936 - La Plata - Buenos Aires ,"Universidad Católica de La Plata, Facultad de Derecho y Ciencias Políticas",ARG,Buenos Aires,La Plata,-57.9516199,-34.9248227
99,Universidad Católica de La Plata,Unidad Académica Bernal - Facultad de Arquitectura y Diseño,25 de Mayo 51 - Bernal - Buenos Aires ,"Universidad Católica de La Plata, Unidad Académica Bernal - Facultad de Arquitectura y Diseño",ARG,Buenos Aires,Quilmes,-58.28246,-34.71012
100,Universidad Católica de La Plata,Unidad Académica Bernal - Facultad de Ciencias Económicas y Sociales,25 de Mayo 51 - Bernal - Buenos Aires ,"Universidad Católica de La Plata, Unidad Académica Bernal - Facultad de Ciencias Económicas y Sociales",ARG,Buenos Aires,Quilmes,-58.28246,-34.71012
101,Universidad Católica de La Plata,Unidad Académica Bernal - Facultad de Derecho y Ciencias Políticas,25 de Mayo 51 - Bernal - Buenos Aires ,"Universidad Católica de La Plata, Unidad Académica Bernal - Facultad de Derecho y Ciencias Políticas",ARG,Buenos Aires,Quilmes,-58.28246,-34.71012
102,Universidad Católica de La Plata,Facultad de Arquitectura y Diseño,50 818 - La Plata - Buenos Aires ,"Universidad Católica de La Plata, Facultad de Arquitectura y Diseño",ARG,Buenos Aires,La Plata,-57.9541807,-34.9189219
103,Universidad Católica de La Plata,Facultad de Ciencias de la Salud,44 e/ 9 y 10 720 - La Plata - Buenos Aires ,"Universidad Católica de La Plata, Facultad de Ciencias de la Salud",ARG,Buenos Aires,La Plata,-57.9546421,-34.9145879
104,Universidad Católica de La Plata,Facultad de Ciencias Económicas y Sociales,"v. 25 47, B1900 La Plata – Buenos Aires","Universidad Católica de La Plata, Facultad de Ciencias Económicas y Sociales",ARG,Buenos Aires,La Plata,-57.9864362,-34.9181823
105,Universidad Católica de La Plata,Facultad de Ciencias Exáctas e Ingeniería,Diagonal 73 2137 - La Plata - Buenos Aires ,"Universidad Católica de La Plata, Facultad de Ciencias Exáctas e Ingeniería",ARG,Buenos Aires,La Plata,-57.9622086,-34.9216576
106,Universidad Católica de La Plata,Facultad de Humanidades,11 e/ 51 y 53 972 - La Plata - Buenos Aires ,"Universidad Católica de La Plata, Facultad de Humanidades",ARG,Buenos Aires,La Plata,-57.81343,-34.95993
107,Universidad Católica de La Plata,Facultad de Odontología,"Av. 13 680, X5018ADN La Plata – Buenos Aires","Universidad Católica de La Plata, Facultad de Odontología",ARG,Buenos Aires,La Plata,-57.9596661,-34.9176399
108,Universidad Católica de Santiago del Estero,Departamento Académico Buenos Aires,Corrientes 180 - Olivos - Buenos Aires ,"Universidad Católica de Santiago del Estero, Departamento Académico Buenos Aires",ARG,Buenos Aires,Vicente López,-58.4769836,-34.5071798
109,Universidad de Belgrano,Facultad de Arquitectura y Urbanismo,Zabala 1837 - Ciudad Autonoma de Buenos Aires - Ciudad Autonoma de Buenos Aires ,"Universidad de Belgrano, Facultad de Arquitectura y Urbanismo",ARG,Ciudad Autónoma de Buenos Aires,Ciudad de Buenos Aires,-58.4441269,-34.5645538
110,Universidad de Belgrano,Facultad de Humanidades,Zabala 1837 - Ciudad Autonoma de Buenos Aires - Ciudad Autonoma de Buenos Aires ,"Universidad de Belgrano, Facultad de Humanidades",ARG,Ciudad Autónoma de Buenos Aires,Ciudad de Buenos Aires,-58.4441269,-34.5645538
111,Universidad de Belgrano,Facultad de Ciencias de la Salud,Villanueva 1324 - Ciudad Autonoma de Buenos Aires - Ciudad Autonoma de Buenos Aires ,"Universidad de Belgrano, Facultad de Ciencias de la Salud",ARG,Ciudad Autónoma de Buenos Aires,Ciudad de Buenos Aires,-58.44267,-34.5654899
112,Universidad de Belgrano,Facultad de Ciencias Exactas y Naturales,Villanueva 1324 - Ciudad Autonoma de Buenos Aires - Ciudad Autonoma de Buenos Aires ,"Universidad de Belgrano, Facultad de Ciencias Exactas y Naturales",ARG,Ciudad Autónoma de Buenos Aires,Ciudad de Buenos Aires,-58.44267,-34.5654899
113,Universidad de Belgrano,Facultad de Ciencias Económicas,Zabala 1837 - Ciudad Autonoma de Buenos Aires - Ciudad Autonoma de Buenos Aires ,"Universidad de Belgrano, Facultad de Ciencias Económicas",ARG,Ciudad Autónoma de Buenos Aires,Ciudad de Buenos Aires,-58.4441269,-34.5645538
114,Universidad de Belgrano,Facultad de Derecho y Ciencias Sociales,Zabala 1837 - Ciudad Autonoma de Buenos Aires - Ciudad Autonoma de Buenos Aires ,"Universidad de Belgrano, Facultad de Derecho y Ciencias Sociales",ARG,Ciudad Autónoma de Buenos Aires,Ciudad de Buenos Aires,-58.4441269,-34.5645538
115,Universidad de Belgrano,Facultad de Ciencias Agrarias,Federico Lacroze 1955 - Ciudad Autonoma de Buenos Aires - Ciudad Autonoma de Buenos Aires ,"Universidad de Belgrano, Facultad de Ciencias Agrarias",ARG,Ciudad Autónoma de Buenos Aires,Ciudad de Buenos Aires,-58.37344,-34.6085
116,Universidad de Belgrano,Facultad de Estudios para Graduados,Lavalle 485 - Ciudad Autonoma de Buenos Aires - Ciudad Autonoma de Buenos Aires ,"Universidad de Belgrano, Facultad de Estudios para Graduados",ARG,Ciudad Autónoma de Buenos Aires,Ciudad de Buenos Aires,-58.37363,-34.60211
117,Universidad de Belgrano,Facultad de Humanidades - Escuela de Lenguas y Estudios Extranjeros,Zabala 1837 - Ciudad Autonoma de Buenos Aires - Ciudad Autonoma de Buenos Aires ,"Universidad de Belgrano, Facultad de Humanidades - Escuela de Lenguas y Estudios Extranjeros",ARG,Ciudad Autónoma de Buenos Aires,Ciudad de Buenos Aires,-58.4441269,-34.5645538
118,Universidad de Belgrano,Facultad de Ingeniería Y Tecnología Informática,Federico Lacroze 1955 - Ciudad Autonoma de Buenos Aires - Ciudad Autonoma de Buenos Aires ,"Universidad de Belgrano, Facultad de Ingeniería Y Tecnología Informática",ARG,Ciudad Autónoma de Buenos Aires,Ciudad de Buenos Aires,-58.37344,-34.6085
119,Universidad de Belgrano,Escuela de Posgrado en Negocios,Zabala 1837 - Ciudad Autonoma de Buenos Aires - Ciudad Autonoma de Buenos Aires ,"Universidad de Belgrano, Escuela de Posgrado en Negocios",ARG,Ciudad Autónoma de Buenos Aires,Ciudad de Buenos Aires,-58.4441269,-34.5645538
120,Universidad de Buenos Aires,Facultad de Arquitectura Diseño y Urbanismo,Intendente Güiraldes 2160 - Ciudad Autonoma de Buenos Aires - Ciudad Autonoma de Buenos Aires ,"Universidad de Buenos Aires, Facultad de Arquitectura Diseño y Urbanismo",ARG,Ciudad Autónoma de Buenos Aires,Ciudad de Buenos Aires,-58.43995,-34.54684
121,Universidad de Buenos Aires,Facultad de Ciencias Exactas y Naturales,Intendente Güiraldes 2160 - Ciudad Autonoma de Buenos Aires - Ciudad Autonoma de Buenos Aires ,"Universidad de Buenos Aires, Facultad de Ciencias Exactas y Naturales",ARG,Ciudad Autónoma de Buenos Aires,Ciudad de Buenos Aires,-58.43995,-34.54684
122,Universidad de Buenos Aires,Facultad de Agronomía,Av. San Martín 4453 - Ciudad Autonoma de Buenos Aires - Ciudad Autonoma de Buenos Aires ,"Universidad de Buenos Aires, Facultad de Agronomía",ARG,Ciudad Autónoma de Buenos Aires,Ciudad de Buenos Aires,-58.48238,-34.59807
123,Universidad de Buenos Aires,Facultad de Ciencias Veterinarias,Chorroarín 280 - Ciudad Autonoma de Buenos Aires - Ciudad Autonoma de Buenos Aires ,"Universidad de Buenos Aires, Facultad de Ciencias Veterinarias",ARG,Ciudad Autónoma de Buenos Aires,Ciudad de Buenos Aires,-58.4775,-34.5962099
124,Universidad de Buenos Aires,Facultad de Filosofía y Letras,Puán 480 - Ciudad Autonoma de Buenos Aires - Ciudad Autonoma de Buenos Aires ,"Universidad de Buenos Aires, Facultad de Filosofía y Letras",ARG,Ciudad Autónoma de Buenos Aires,Ciudad de Buenos Aires,-58.4467,-34.62831
125,Universidad de Buenos Aires,Facultad de Derecho,Av.Pte.F.Alcorta 2263 - Ciudad Autonoma de Buenos Aires - Ciudad Autonoma de Buenos Aires ,"Universidad de Buenos Aires, Facultad de Derecho",ARG,Ciudad Autónoma de Buenos Aires,Ciudad de Buenos Aires,-58.37344,-34.6085
126,Universidad de Buenos Aires,Facultad de Psicología,Hipólito Irigoyen 3238 - Ciudad Autonoma de Buenos Aires - Ciudad Autonoma de Buenos Aires ,"Universidad de Buenos Aires, Facultad de Psicología",ARG,Ciudad Autónoma de Buenos Aires,Ciudad de Buenos Aires,-58.50476,-34.6727
127,Universidad de Buenos Aires,Rectorado,Viamonte 430 - Ciudad Autonoma de Buenos Aires - Ciudad Autonoma de Buenos Aires ,"Universidad de Buenos Aires, Rectorado",ARG,Ciudad Autónoma de Buenos Aires,Ciudad de Buenos Aires,-58.3732,-34.59974
128,Universidad de Buenos Aires,Facultad de Odontología,MarceloT.de Alvear 2142 - Ciudad Autonoma de Buenos Aires - Ciudad Autonoma de Buenos Aires ,"Universidad de Buenos Aires, Facultad de Odontología",ARG,Ciudad Autónoma de Buenos Aires,Ciudad de Buenos Aires,-58.3981163,-34.597186
129,Universidad de Buenos Aires,Facultad de Farmacia y Bioquímica,Junín 954 - Ciudad Autonoma de Buenos Aires - Ciudad Autonoma de Buenos Aires ,"Universidad de Buenos Aires, Facultad de Farmacia y Bioquímica",ARG,Ciudad Autónoma de Buenos Aires,Ciudad de Buenos Aires,-58.3974584,-34.597903
130,Universidad de Buenos Aires,Facultad de Medicina,Paraguay 2155 - Ciudad Autonoma de Buenos Aires - Ciudad Autonoma de Buenos Aires ,"Universidad de Buenos Aires, Facultad de Medicina",ARG,Ciudad Autónoma de Buenos Aires,Ciudad de Buenos Aires,-58.3983601,-34.5984986
131,Universidad de Buenos Aires,Facultad de Ciencias Económicas,Av. Córdoba 2122 - Ciudad Autonoma de Buenos Aires - Ciudad Autonoma de Buenos Aires ,"Universidad de Buenos Aires, Facultad de Ciencias Económicas",ARG,Ciudad Autónoma de Buenos Aires,Ciudad de Buenos Aires,-58.3975359,-34.5997737
132,Universidad de Buenos Aires,Facultad de Ciencias Sociales,Marcelo T. de Alvear 2230 - Ciudad Autonoma de Buenos Aires - Ciudad Autonoma de Buenos Aires ,"Universidad de Buenos Aires, Facultad de Ciencias Sociales",ARG,Ciudad Autónoma de Buenos Aires,Ciudad de Buenos Aires,-58.3995,-34.59698
133,Universidad de Buenos Aires,Facultad de Ingeniería,Paseo Colón 850 - Ciudad Autonoma de Buenos Aires - Ciudad Autonoma de Buenos Aires ,"Universidad de Buenos Aires, Facultad de Ingeniería",ARG,Ciudad Autónoma de Buenos Aires,Ciudad de Buenos Aires,-58.44631,-34.68477
134,Universidad de Ciencias Empresariales y Sociales,Departamento de Posgrados,Paraguay 1338 - Ciudad Autonoma de Buenos Aires - Ciudad Autonoma de Buenos Aires ,"Universidad de Ciencias Empresariales y Sociales, Departamento de Posgrados",ARG,Ciudad Autónoma de Buenos Aires,Ciudad de Buenos Aires,-58.38613,-34.59823
135,Universidad de Ciencias Empresariales y Sociales,UCES San Isidro,Chile 343 - San Isidro - Buenos Aires ,"Universidad de Ciencias Empresariales y Sociales, UCES San Isidro",ARG,Buenos Aires,San Isidro,-58.5171637,-34.4653777
136,Universidad de Ciencias Empresariales y Sociales,UCES Olivos,Roma 650 - Olivos - Buenos Aires ,"Universidad de Ciencias Empresariales y Sociales, UCES Olivos",ARG,Buenos Aires,Vicente López,-58.48491,-34.50255
137,Universidad de Ciencias Empresariales y Sociales,Sede Cañuelas,Hipólito Yrigoyen 405 - La Noria - Buenos Aires ,"Universidad de Ciencias Empresariales y Sociales, Sede Cañuelas",ARG,Buenos Aires,Canuelas,-58.767444,-35.051306
138,Universidad de Ciencias Empresariales y Sociales,Facultad de Ciencias de la Comunicación,Paraguay 1401 - Ciudad Autonoma de Buenos Aires - Ciudad Autonoma de Buenos Aires ,"Universidad de Ciencias Empresariales y Sociales, Facultad de Ciencias de la Comunicación",ARG,Ciudad Autónoma de Buenos Aires,Ciudad de Buenos Aires,-58.38711,-34.5983
139,Universidad de Ciencias Empresariales y Sociales,Facultad de Ciencias de la Salud,Paraguay 1401 - Ciudad Autonoma de Buenos Aires - Ciudad Autonoma de Buenos Aires ,"Universidad de Ciencias Empresariales y Sociales, Facultad de Ciencias de la Salud",ARG,Ciudad Autónoma de Buenos Aires,Ciudad de Buenos Aires,-58.38711,-34.5983
140,Universidad de Ciencias Empresariales y Sociales,Facultad de Ciencias Económicas,Paraguay 1401 - Ciudad Autonoma de Buenos Aires - Ciudad Autonoma de Buenos Aires ,"Universidad de Ciencias Empresariales y Sociales, Facultad de Ciencias Económicas",ARG,Ciudad Autónoma de Buenos Aires,Ciudad de Buenos Aires,-58.38711,-34.5983
141,Universidad de Ciencias Empresariales y Sociales,Facultad de Ciencias Empresariales,Paraguay 1401 - Ciudad Autonoma de Buenos Aires - Ciudad Autonoma de Buenos Aires ,"Universidad de Ciencias Empresariales y Sociales, Facultad de Ciencias Empresariales",ARG,Ciudad Autónoma de Buenos Aires,Ciudad de Buenos Aires,-58.38711,-34.5983
142,Universidad de Ciencias Empresariales y Sociales,Facultad de Ciencias Jurídicas y Políticas,Paraguay 1401 - Ciudad Autonoma de Buenos Aires - Ciudad Autonoma de Buenos Aires ,"Universidad de Ciencias Empresariales y Sociales, Facultad de Ciencias Jurídicas y Políticas",ARG,Ciudad Autónoma de Buenos Aires,Ciudad de Buenos Aires,-58.38711,-34.5983
143,Universidad de Ciencias Empresariales y Sociales,Facultad de Psicología y Ciencias Sociales,Paraguay 1401 - Ciudad Autonoma de Buenos Aires - Ciudad Autonoma de Buenos Aires ,"Universidad de Ciencias Empresariales y Sociales, Facultad de Psicología y Ciencias Sociales",ARG,Ciudad Autónoma de Buenos Aires,Ciudad de Buenos Aires,-58.38711,-34.5983
144,Universidad de Ciencias Empresariales y Sociales,Pilar,"Av. Dr. Honorio Pueyrredón 463, Pilar – Buenos Aires","Universidad de Ciencias Empresariales y Sociales, Pilar",ARG,Buenos Aires,Pilar,-58.904678,-34.4481968
145,Universidad de Flores,Facultad de Actividad Física y Deporte,Pedernera 275 - Ciudad Autonoma de Buenos Aires - Ciudad Autonoma de Buenos Aires ,"Universidad de Flores, Facultad de Actividad Física y Deporte",ARG,Ciudad Autónoma de Buenos Aires,Ciudad de Buenos Aires,-58.46276,-34.63249
146,Universidad de Flores,Facultad de Administración,Pedernera 275 - Ciudad Autonoma de Buenos Aires - Ciudad Autonoma de Buenos Aires ,"Universidad de Flores, Facultad de Administración",ARG,Ciudad Autónoma de Buenos Aires,Ciudad de Buenos Aires,-58.46276,-34.63249
147,Universidad de Flores,Facultad de Derecho,Pedernera 275 - Ciudad Autonoma de Buenos Aires - Ciudad Autonoma de Buenos Aires ,"Universidad de Flores, Facultad de Derecho",ARG,Ciudad Autónoma de Buenos Aires,Ciudad de Buenos Aires,-58.46276,-34.63249
148,Universidad de Flores,Facultad de Ingeniería,Pedernera 275 - Ciudad Autonoma de Buenos Aires - Ciudad Autonoma de Buenos Aires ,"Universidad de Flores, Facultad de Ingeniería",ARG,Ciudad Autónoma de Buenos Aires,Ciudad de Buenos Aires,-58.46276,-34.63249
149,Universidad de Flores,Facultad de Planeamiento,Pedernera 275 - Ciudad Autonoma de Buenos Aires - Ciudad Autonoma de Buenos Aires ,"Universidad de Flores, Facultad de Planeamiento",ARG,Ciudad Autónoma de Buenos Aires,Ciudad de Buenos Aires,-58.46276,-34.63249
150,Universidad de Flores,Facultad de Psicología y Ciencias Sociales,Pedernera 275 - Ciudad Autonoma de Buenos Aires - Ciudad Autonoma de Buenos Aires ,"Universidad de Flores, Facultad de Psicología y Ciencias Sociales",ARG,Ciudad Autónoma de Buenos Aires,Ciudad de Buenos Aires,-58.46276,-34.63249
151,Universidad de la Defensa Nacional,Facultad del Ejército,Av Cabildo 65 - Ciudad Autonoma de Buenos Aires - Ciudad Autonoma de Buenos Aires ,"Universidad de la Defensa Nacional, Facultad del Ejército",ARG,Ciudad Autónoma de Buenos Aires,Ciudad de Buenos Aires,-58.43662,-34.57426
152,Universidad de la Defensa Nacional,Facultad de la Armada,Maipú 262 - Ciudad Autonoma de Buenos Aires - Ciudad Autonoma de Buenos Aires ,"Universidad de la Defensa Nacional, Facultad de la Armada",ARG,Ciudad Autónoma de Buenos Aires,Ciudad de Buenos Aires,-58.376576,-34.6051698
153,Universidad de la Defensa Nacional,Facultad de la Fuerza Aérea,Maipú 262 - Ciudad Autonoma de Buenos Aires - Ciudad Autonoma de Buenos Aires ,"Universidad de la Defensa Nacional, Facultad de la Fuerza Aérea",ARG,Ciudad Autónoma de Buenos Aires,Ciudad de Buenos Aires,-58.376576,-34.6051698
154,Universidad de la Marina Mercante,"Facultad de Ciencias Jurídicas, Sociales y de la Comunicación",Av. Rivadavia 2258 - Ciudad Autonoma de Buenos Aires - Ciudad Autonoma de Buenos Aires ,"Universidad de la Marina Mercante, Facultad de Ciencias Jurídicas, Sociales y de la Comunicación",ARG,Ciudad Autónoma de Buenos Aires,Ciudad de Buenos Aires,-58.39841,-34.60968
155,Universidad de la Marina Mercante,Facultad de Humanidades,Av. Rivadavia 2258 - Ciudad Autonoma de Buenos Aires - Ciudad Autonoma de Buenos Aires ,"Universidad de la Marina Mercante, Facultad de Humanidades",ARG,Ciudad Autónoma de Buenos Aires,Ciudad de Buenos Aires,-58.39841,-34.60968
156,Universidad de la Marina Mercante,Facultad de Administración y Economía,Av. Rivadavia 2258 - Ciudad Autonoma de Buenos Aires - Ciudad Autonoma de Buenos Aires ,"Universidad de la Marina Mercante, Facultad de Administración y Economía",ARG,Ciudad Autónoma de Buenos Aires,Ciudad de Buenos Aires,-58.39841,-34.60968
157,Universidad de la Marina Mercante,Facultad de Ingeniería,Av. Rivadavia 2258 - Ciudad Autonoma de Buenos Aires - Ciudad Autonoma de Buenos Aires ,"Universidad de la Marina Mercante, Facultad de Ingeniería",ARG,Ciudad Autónoma de Buenos Aires,Ciudad de Buenos Aires,-58.39841,-34.60968
158,Universidad de Morón,"Facultad de Derecho, Ciencias Políticas y Sociales",Machado 854 - Moron - Buenos Aires ,"Universidad de Morón, Facultad de Derecho, Ciencias Políticas y Sociales",ARG,Buenos Aires,Morón,-58.6204543,-34.6464148
159,Universidad de Morón,Facultad de Medicina,Machado 854 - Moron - Buenos Aires ,"Universidad de Morón, Facultad de Medicina",ARG,Buenos Aires,Morón,-58.6204543,-34.6464148
160,Universidad de Morón,Escuela Diocesana de Servicio Social,Machado 854 - Moron - Buenos Aires ,"Universidad de Morón, Escuela Diocesana de Servicio Social",ARG,Buenos Aires,Morón,-58.6204543,-34.6464148
161,Universidad de Morón,Facultad de Agronomía y Ciencias Agroalimentarias,Machado 854 - Moron - Buenos Aires ,"Universidad de Morón, Facultad de Agronomía y Ciencias Agroalimentarias",ARG,Buenos Aires,Morón,-58.6204543,-34.6464148
162,Universidad de Morón,"Facultad de Arquitectura, Diseño, Arte y Urbanismo",Machado 854 - Moron - Buenos Aires ,"Universidad de Morón, Facultad de Arquitectura, Diseño, Arte y Urbanismo",ARG,Buenos Aires,Morón,-58.6204543,-34.6464148
163,Universidad de Morón,Facultad de Ciencias Aplicadas al Turismo y la Población,Machado 854 - Moron - Buenos Aires ,"Universidad de Morón, Facultad de Ciencias Aplicadas al Turismo y la Población",ARG,Buenos Aires,Morón,-58.6204543,-34.6464148
164,Universidad de Morón,Facultad de Ciencias Económicas y Empresariales,Machado 854 - Moron - Buenos Aires ,"Universidad de Morón, Facultad de Ciencias Económicas y Empresariales",ARG,Buenos Aires,Morón,-58.6204543,-34.6464148
165,Universidad de Morón,"Facultad de Ciencias Exactas, Químicas y Naturales",Machado 854 - Moron - Buenos Aires ,"Universidad de Morón, Facultad de Ciencias Exactas, Químicas y Naturales",ARG,Buenos Aires,Morón,-58.6204543,-34.6464148
166,Universidad de Morón,"Facultad de Filosofía, Ciencias de la Educación y Humanidades",Machado 854 - Moron - Buenos Aires ,"Universidad de Morón, Facultad de Filosofía, Ciencias de la Educación y Humanidades",ARG,Buenos Aires,Morón,-58.6204543,-34.6464148
167,Universidad de Morón,"Facultad de Informática, Ciencias de la Comunicación y Técnicas Especiales",Machado 854 - Moron - Buenos Aires ,"Universidad de Morón, Facultad de Informática, Ciencias de la Comunicación y Técnicas Especiales",ARG,Buenos Aires,Morón,-58.6204543,-34.6464148
168,Universidad de Morón,Facultad de Ingeniería,Cabildo 134 - Moron - Buenos Aires ,"Universidad de Morón, Facultad de Ingeniería",ARG,Buenos Aires,Morón,-58.61978,-34.6471659
169,Universidad de Palermo,Facultad de Ciencias Sociales,Mario Bravo 1259 - Ciudad Autonoma de Buenos Aires - Ciudad Autonoma de Buenos Aires ,"Universidad de Palermo, Facultad de Ciencias Sociales",ARG,Ciudad Autónoma de Buenos Aires,Ciudad de Buenos Aires,-58.41478,-34.595
170,Universidad de Palermo,Facultad de Derecho,Mario Bravo 1050 - Ciudad Autonoma de Buenos Aires - Ciudad Autonoma de Buenos Aires ,"Universidad de Palermo, Facultad de Derecho",ARG,Ciudad Autónoma de Buenos Aires,Ciudad de Buenos Aires,-58.41578,-34.59736
171,Universidad de Palermo,Facultad de Diseño y Comunicación,Mario Bravo 1050 - Ciudad Autonoma de Buenos Aires - Ciudad Autonoma de Buenos Aires ,"Universidad de Palermo, Facultad de Diseño y Comunicación",ARG,Ciudad Autónoma de Buenos Aires,Ciudad de Buenos Aires,-58.41578,-34.59736
172,Universidad de Palermo,Facultad de Ingeniería,Mario Bravo 1050 - Ciudad Autonoma de Buenos Aires - Ciudad Autonoma de Buenos Aires ,"Universidad de Palermo, Facultad de Ingeniería",ARG,Ciudad Autónoma de Buenos Aires,Ciudad de Buenos Aires,-58.41578,-34.59736
173,Universidad de Palermo,Facultad de Arquitectura,Mario Bravo 1050 - Ciudad Autonoma de Buenos Aires - Ciudad Autonoma de Buenos Aires ,"Universidad de Palermo, Facultad de Arquitectura",ARG,Ciudad Autónoma de Buenos Aires,Ciudad de Buenos Aires,-58.41578,-34.59736
174,Universidad de Palermo,Facultad de Ciencias Económicas,Mario Bravo 1050 - Ciudad Autonoma de Buenos Aires - Ciudad Autonoma de Buenos Aires ,"Universidad de Palermo, Facultad de Ciencias Económicas",ARG,Ciudad Autónoma de Buenos Aires,Ciudad de Buenos Aires,-58.41578,-34.59736
175,Universidad de San Andrés,Departamento de Ciencias Sociales,Vito Dumas 284 - Victoria - Buenos Aires ,"Universidad de San Andrés, Departamento de Ciencias Sociales",ARG,Buenos Aires,San Fernando,-58.5312505,-34.4464719
176,Universidad de San Andrés,Departamento de Derecho,Vito Dumas 284 - Victoria - Buenos Aires ,"Universidad de San Andrés, Departamento de Derecho",ARG,Buenos Aires,San Fernando,-58.5312505,-34.4464719
177,Universidad de San Andrés,Departamento de Humanidades,Vito Dumas 284 - Victoria - Buenos Aires ,"Universidad de San Andrés, Departamento de Humanidades",ARG,Buenos Aires,San Fernando,-58.5312505,-34.4464719
178,Universidad de San Andrés,Departamento de Economia,Vito Dumas 284 - Victoria - Buenos Aires ,"Universidad de San Andrés, Departamento de Economia",ARG,Buenos Aires,San Fernando,-58.5312505,-34.4464719
179,Universidad de San Andrés,Escuela de Administración y Negocios,Vito Dumas 284 - Victoria - Buenos Aires ,"Universidad de San Andrés, Escuela de Administración y Negocios",ARG,Buenos Aires,San Fernando,-58.5312505,-34.4464719
180,Universidad de San Andrés,Escuela de Educación,Vito Dumas 284 - Victoria - Buenos Aires ,"Universidad de San Andrés, Escuela de Educación",ARG,Buenos Aires,San Fernando,-58.5312505,-34.4464719
181,"Universidad de San Isidro ""Dr. Plácido Marín""",Facultad de Ciencias Humanas y Sociales,Av. libertador 17175 - Beccar - Buenos Aires ,"Universidad de San Isidro ""Dr. Plácido Marín"", Facultad de Ciencias Humanas y Sociales",ARG,Buenos Aires,San Isidro,-58.5185009,-34.4612733
182,"Universidad de San Isidro ""Dr. Plácido Marín""",Facultad de Ciencias Jurídicas y de la Administración,Av. libertador 17175 - Beccar - Buenos Aires ,"Universidad de San Isidro ""Dr. Plácido Marín"", Facultad de Ciencias Jurídicas y de la Administración",ARG,Buenos Aires,San Isidro,-58.5185009,-34.4612733
183,Universidad del CEMA,Departamento de Ciencias Políticas y Relaciones Internacionales,Córdoba 374 - Ciudad Autonoma de Buenos Aires - Ciudad Autonoma de Buenos Aires ,"Universidad del CEMA, Departamento de Ciencias Políticas y Relaciones Internacionales",ARG,Ciudad Autónoma de Buenos Aires,Ciudad de Buenos Aires,-58.44631,-34.68477
184,Universidad del CEMA,Departamento de Dirección de Empresas,Córdoba 374 - Ciudad Autonoma de Buenos Aires - Ciudad Autonoma de Buenos Aires ,"Universidad del CEMA, Departamento de Dirección de Empresas",ARG,Ciudad Autónoma de Buenos Aires,Ciudad de Buenos Aires,-58.44631,-34.68477
185,Universidad del CEMA,Departamento de Finanzas,Córdoba 374 - Ciudad Autonoma de Buenos Aires - Ciudad Autonoma de Buenos Aires ,"Universidad del CEMA, Departamento de Finanzas",ARG,Ciudad Autónoma de Buenos Aires,Ciudad de Buenos Aires,-58.44631,-34.68477
186,Universidad del CEMA,Secretaria Académica,Córdoba 374 - Ciudad Autonoma de Buenos Aires - Ciudad Autonoma de Buenos Aires ,"Universidad del CEMA, Secretaria Académica",ARG,Ciudad Autónoma de Buenos Aires,Ciudad de Buenos Aires,-58.44631,-34.68477
187,Universidad del CEMA,Departamento de Ingeniería,Córdoba 374 - Ciudad Autonoma de Buenos Aires - Ciudad Autonoma de Buenos Aires ,"Universidad del CEMA, Departamento de Ingeniería",ARG,Ciudad Autónoma de Buenos Aires,Ciudad de Buenos Aires,-58.44631,-34.68477
188,Universidad del Cine,Facultad de Ciencias de la Comunicación,Pasaje J M Giuffra 330 - Ciudad Autonoma de Buenos Aires - Ciudad Autonoma de Buenos Aires ,"Universidad del Cine, Facultad de Ciencias de la Comunicación",ARG,Ciudad Autónoma de Buenos Aires,Ciudad de Buenos Aires,-58.45649,-34.65793
189,Universidad del Cine,Facultad de Cinematografía,Pasaje J M Giuffra 330 - Ciudad Autonoma de Buenos Aires - Ciudad Autonoma de Buenos Aires ,"Universidad del Cine, Facultad de Cinematografía",ARG,Ciudad Autónoma de Buenos Aires,Ciudad de Buenos Aires,-58.45649,-34.65793
190,Universidad del Este,Facultad de Ciencias Económicas,Diagonal 80 723 - La Plata - Buenos Aires ,"Universidad del Este, Facultad de Ciencias Económicas",ARG,Buenos Aires,La Plata,-57.9489728,-34.9073787
191,Universidad del Este,Facultad de Ciencias Humanas,Diagonal 80 723 - La Plata - Buenos Aires ,"Universidad del Este, Facultad de Ciencias Humanas",ARG,Buenos Aires,La Plata,-57.9489728,-34.9073787
192,Universidad del Este,Facultad de Derecho y Ciencias Sociales,Diagonal 80 723 - La Plata - Buenos Aires ,"Universidad del Este, Facultad de Derecho y Ciencias Sociales",ARG,Buenos Aires,La Plata,-57.9489728,-34.9073787
193,Universidad del Este,Facultad de Diseño y Comunicación,Diagonal 80 723 - La Plata - Buenos Aires ,"Universidad del Este, Facultad de Diseño y Comunicación",ARG,Buenos Aires,La Plata,-57.9489728,-34.9073787
194,Universidad del Museo Social Argentino,Departamento de Posgrado,Av. Corrientes 1723 - Ciudad Autonoma de Buenos Aires - Ciudad Autonoma de Buenos Aires ,"Universidad del Museo Social Argentino, Departamento de Posgrado",ARG,Ciudad Autónoma de Buenos Aires,Ciudad de Buenos Aires,-58.39129,-34.6044
195,Universidad del Museo Social Argentino,Facultad de Artes,Sarmiento 1565 - Ciudad Autonoma de Buenos Aires - Ciudad Autonoma de Buenos Aires ,"Universidad del Museo Social Argentino, Facultad de Artes",ARG,Ciudad Autónoma de Buenos Aires,Ciudad de Buenos Aires,-58.38883,-34.60544
196,Universidad del Museo Social Argentino,Facultad de Ciencias Económicas,Av. Corrientes 1723 - Ciudad Autonoma de Buenos Aires - Ciudad Autonoma de Buenos Aires ,"Universidad del Museo Social Argentino, Facultad de Ciencias Económicas",ARG,Ciudad Autónoma de Buenos Aires,Ciudad de Buenos Aires,-58.39129,-34.6044
197,Universidad del Museo Social Argentino,Facultad de Ciencias Humanas,Av. Corrientes 1723 - Ciudad Autonoma de Buenos Aires - Ciudad Autonoma de Buenos Aires ,"Universidad del Museo Social Argentino, Facultad de Ciencias Humanas",ARG,Ciudad Autónoma de Buenos Aires,Ciudad de Buenos Aires,-58.39129,-34.6044
198,Universidad del Museo Social Argentino,Facultad de Ciencias Jurídicas y Sociales,Av. Corrientes 1723 - Ciudad Autonoma de Buenos Aires - Ciudad Autonoma de Buenos Aires ,"Universidad del Museo Social Argentino, Facultad de Ciencias Jurídicas y Sociales",ARG,Ciudad Autónoma de Buenos Aires,Ciudad de Buenos Aires,-58.39129,-34.6044
199,Universidad del Museo Social Argentino,Facultad de Lenguas Modernas,Av. Corrientes 1723 - Ciudad Autonoma de Buenos Aires - Ciudad Autonoma de Buenos Aires ,"Universidad del Museo Social Argentino, Facultad de Lenguas Modernas",ARG,Ciudad Autónoma de Buenos Aires,Ciudad de Buenos Aires,-58.39129,-34.6044
200,Universidad del Norte Santo Tomás de Aquino,Centro de Estudios de Filosofia y Teologia de la Orden de Predicadores,Pasaje 5 de Julio 489 - Ciudad Autonoma de Buenos Aires - Ciudad Autonoma de Buenos Aires ,"Universidad del Norte Santo Tomás de Aquino, Centro de Estudios de Filosofia y Teologia de la Orden de Predicadores",ARG,Ciudad Autónoma de Buenos Aires,Ciudad de Buenos Aires,-58.37116,-34.61338
201,Universidad del Salvador,Facultad de Ciencias Jurídicas,Av. Callao 660 - Ciudad Autonoma de Buenos Aires - Ciudad Autonoma de Buenos Aires ,"Universidad del Salvador, Facultad de Ciencias Jurídicas",ARG,Ciudad Autónoma de Buenos Aires,Ciudad de Buenos Aires,-58.39268,-34.60134
202,Universidad del Salvador,Facultad de Psicología y Psicopedagogía,Marcelo T. de Alvear 1335 - Ciudad Autonoma de Buenos Aires - Ciudad Autonoma de Buenos Aires ,"Universidad del Salvador, Facultad de Psicología y Psicopedagogía",ARG,Ciudad Autónoma de Buenos Aires,Ciudad de Buenos Aires,-58.3862194,-34.5970216
203,Universidad del Salvador,Instituto de Prevención de la Drogadependencia,Hipólito Yrigoyen 2441 - Ciudad Autonoma de Buenos Aires - Ciudad Autonoma de Buenos Aires ,"Universidad del Salvador, Instituto de Prevención de la Drogadependencia",ARG,Ciudad Autónoma de Buenos Aires,Ciudad de Buenos Aires,-58.37772,-34.6094
204,Universidad del Salvador,"Facultad de Historia, Geografía y Turismo",Viamonte 2213 - Ciudad Autonoma de Buenos Aires - Ciudad Autonoma de Buenos Aires ,"Universidad del Salvador, Facultad de Historia, Geografía y Turismo",ARG,Ciudad Autónoma de Buenos Aires,Ciudad de Buenos Aires,-58.39894,-34.60109
205,Universidad del Salvador,Facultad de Ciencias de la Educación y de la Comunicación Social,Av. Callao 835 - Ciudad Autonoma de Buenos Aires - Ciudad Autonoma de Buenos Aires ,"Universidad del Salvador, Facultad de Ciencias de la Educación y de la Comunicación Social",ARG,Ciudad Autónoma de Buenos Aires,Ciudad de Buenos Aires,-58.39298,-34.59921
206,Universidad del Salvador,Facultad de Medicina,Tucumán 1845 - Ciudad Autonoma de Buenos Aires - Ciudad Autonoma de Buenos Aires ,"Universidad del Salvador, Facultad de Medicina",ARG,Ciudad Autónoma de Buenos Aires,Ciudad de Buenos Aires,-58.39334,-34.60205
207,Universidad del Salvador,Facultad de Ciencias Económicas y Empresariales,Viamonte 1816 - Ciudad Autonoma de Buenos Aires - Ciudad Autonoma de Buenos Aires ,"Universidad del Salvador, Facultad de Ciencias Económicas y Empresariales",ARG,Ciudad Autónoma de Buenos Aires,Ciudad de Buenos Aires,-58.39301,-34.60084
208,Universidad del Salvador,Complejo Educativo Nuestra Señora del Pilar,Champagnat 1599 - Pilar - Buenos Aires ,"Universidad del Salvador, Complejo Educativo Nuestra Señora del Pilar",ARG,Buenos Aires,Pilar,-58.9258488,-34.4391635
209,Universidad del Salvador,Escuela de Lenguas Modernas,Lavalle 1878 - Ciudad Autonoma de Buenos Aires - Ciudad Autonoma de Buenos Aires ,"Universidad del Salvador, Escuela de Lenguas Modernas",ARG,Ciudad Autónoma de Buenos Aires,Ciudad de Buenos Aires,-58.39354,-34.60319
210,Universidad del Salvador,"Facultad de Filosofía, Letras y Estudios Orientales",Lavalle 1878 - Ciudad Autonoma de Buenos Aires - Ciudad Autonoma de Buenos Aires ,"Universidad del Salvador, Facultad de Filosofía, Letras y Estudios Orientales",ARG,Ciudad Autónoma de Buenos Aires,Ciudad de Buenos Aires,-58.39354,-34.60319
211,Universidad del Salvador,Escuela de Diseño,Rodriguez Peña 670 - Ciudad Autonoma de Buenos Aires - Ciudad Autonoma de Buenos Aires ,"Universidad del Salvador, Escuela de Diseño",ARG,Ciudad Autónoma de Buenos Aires,Ciudad de Buenos Aires,-58.39138,-34.60114
212,Universidad del Salvador,Escuela de Estudios Orientales,Rodriguez Peña 670 - Ciudad Autonoma de Buenos Aires - Ciudad Autonoma de Buenos Aires ,"Universidad del Salvador, Escuela de Estudios Orientales",ARG,Ciudad Autónoma de Buenos Aires,Ciudad de Buenos Aires,-58.39138,-34.60114
213,Universidad del Salvador,Facultad de Ciencias Sociales,"res. Tte. Gral. Juan Domingo Perón 1818, Ciudad Autonoma de Buenos Aires - Ciudad Autonoma de Buenos Aires ","Universidad del Salvador, Facultad de Ciencias Sociales",ARG,Ciudad Autónoma de Buenos Aires,Ciudad de Buenos Aires,-58.4222,-34.606
214,Universidad del Salvador,Escuela de Arte y Arquitectura,Hipólito Yrigoyen 2441 - Ciudad Autonoma de Buenos Aires - Ciudad Autonoma de Buenos Aires ,"Universidad del Salvador, Escuela de Arte y Arquitectura",ARG,Ciudad Autónoma de Buenos Aires,Ciudad de Buenos Aires,-58.37772,-34.6094
215,Universidad del Salvador,Facultad de Ingeniería,Lavalle 1878 - Ciudad Autonoma de Buenos Aires - Ciudad Autonoma de Buenos Aires ,"Universidad del Salvador, Facultad de Ingeniería",ARG,Ciudad Autónoma de Buenos Aires,Ciudad de Buenos Aires,-58.39354,-34.60319
216,Universidad Favaloro,Facultad de Ingeniería y Ciencias Exactas y Naturales,Juan Domingo Perón 3175 - Ciudad Autonoma de Buenos Aires - Ciudad Autonoma de Buenos Aires ,"Universidad Favaloro, Facultad de Ingeniería y Ciencias Exactas y Naturales",ARG,Ciudad Autónoma de Buenos Aires,Ciudad de Buenos Aires,-58.37344,-34.6085
217,Universidad Favaloro,Facultad de Ciencias Humanas y de la Conducta,Entre Ríos 495 - Ciudad Autonoma de Buenos Aires - Ciudad Autonoma de Buenos Aires ,"Universidad Favaloro, Facultad de Ciencias Humanas y de la Conducta",ARG,Ciudad Autónoma de Buenos Aires,Ciudad de Buenos Aires,-58.37344,-34.6085
218,Universidad Favaloro,Facultad de Ciencias Médicas,Solís 453 - Ciudad Autonoma de Buenos Aires - Ciudad Autonoma de Buenos Aires ,"Universidad Favaloro, Facultad de Ciencias Médicas",ARG,Ciudad Autónoma de Buenos Aires,Ciudad de Buenos Aires,-58.39038,-34.61436
219,Universidad Favaloro,Rectorado,Solís 453 - Ciudad Autonoma de Buenos Aires - Ciudad Autonoma de Buenos Aires ,"Universidad Favaloro, Rectorado",ARG,Ciudad Autónoma de Buenos Aires,Ciudad de Buenos Aires,-58.39038,-34.61436
220,Universidad ISALUD,Universidad ISALUD - Área Académica,Venezuela 925/31 - Ciudad Autonoma de Buenos Aires - Ciudad Autonoma de Buenos Aires ,"Universidad ISALUD, Universidad ISALUD - Área Académica",ARG,Ciudad Autónoma de Buenos Aires,Ciudad de Buenos Aires,-58.43811,-34.57654
221,Universidad Maimónides,Facultad de Ciencias de la Salud,Hidalgo 775 - Ciudad Autonoma de Buenos Aires - Ciudad Autonoma de Buenos Aires ,"Universidad Maimónides, Facultad de Ciencias de la Salud",ARG,Ciudad Autónoma de Buenos Aires,Ciudad de Buenos Aires,-58.44105,-34.61049
222,Universidad Maimónides,"Facultad de Humanidades, Ciencias Sociales y Empresariales",Hidalgo 775 - Ciudad Autonoma de Buenos Aires - Ciudad Autonoma de Buenos Aires ,"Universidad Maimónides, Facultad de Humanidades, Ciencias Sociales y Empresariales",ARG,Ciudad Autónoma de Buenos Aires,Ciudad de Buenos Aires,-58.44105,-34.61049
223,Universidad Maimónides,Escuela de Comunicación Multimedial,Hidalgo 775 - Ciudad Autonoma de Buenos Aires - Ciudad Autonoma de Buenos Aires ,"Universidad Maimónides, Escuela de Comunicación Multimedial",ARG,Ciudad Autónoma de Buenos Aires,Ciudad de Buenos Aires,-58.44105,-34.61049
224,Universidad Metropolitana para la Educación y el Trabajo,Facultad de Cultura y Comunicación,Sarmiento 2037 - Ciudad Autonoma de Buenos Aires - Ciudad Autonoma de Buenos Aires ,"Universidad Metropolitana para la Educación y el Trabajo, Facultad de Cultura y Comunicación",ARG,Ciudad Autónoma de Buenos Aires,Ciudad de Buenos Aires,-58.39574,-34.6059
225,Universidad Metropolitana para la Educación y el Trabajo,FACULTAD DE DESARROLLO Y GESTIÓN DE LAS ORGANIZACIONES,Sarmiento 2037 - Ciudad Autonoma de Buenos Aires - Ciudad Autonoma de Buenos Aires ,"Universidad Metropolitana para la Educación y el Trabajo, FACULTAD DE DESARROLLO Y GESTIÓN DE LAS ORGANIZACIONES",ARG,Ciudad Autónoma de Buenos Aires,Ciudad de Buenos Aires,-58.39574,-34.6059
226,Universidad Metropolitana para la Educación y el Trabajo,Facultad de Pedagogía,Sarmiento 2037 - Ciudad Autonoma de Buenos Aires - Ciudad Autonoma de Buenos Aires ,"Universidad Metropolitana para la Educación y el Trabajo, Facultad de Pedagogía",ARG,Ciudad Autónoma de Buenos Aires,Ciudad de Buenos Aires,-58.39574,-34.6059
227,Universidad Metropolitana para la Educación y el Trabajo,Facultad de Políticas Públicas y Gestión Ambiental,Sarmiento 2037 - Ciudad Autonoma de Buenos Aires - Ciudad Autonoma de Buenos Aires ,"Universidad Metropolitana para la Educación y el Trabajo, Facultad de Políticas Públicas y Gestión Ambiental",ARG,Ciudad Autónoma de Buenos Aires,Ciudad de Buenos Aires,-58.39574,-34.6059
228,Universidad Metropolitana para la Educación y el Trabajo,FACULTAD DE TECNOLOGÍA APLICADA,Sarmiento 2037 - Ciudad Autonoma de Buenos Aires - Ciudad Autonoma de Buenos Aires ,"Universidad Metropolitana para la Educación y el Trabajo, FACULTAD DE TECNOLOGÍA APLICADA",ARG,Ciudad Autónoma de Buenos Aires,Ciudad de Buenos Aires,-58.39574,-34.6059
229,Universidad Metropolitana para la Educación y el Trabajo,"FACULTAD DE TURISMO, EDUCACIÓN FÍSICA Y DEPORTES",Sarmiento 2037 - Ciudad Autonoma de Buenos Aires - Ciudad Autonoma de Buenos Aires ,"Universidad Metropolitana para la Educación y el Trabajo, FACULTAD DE TURISMO, EDUCACIÓN FÍSICA Y DEPORTES",ARG,Ciudad Autónoma de Buenos Aires,Ciudad de Buenos Aires,-58.39574,-34.6059
230,Universidad Nacional Arturo Jauretche,Instituto de Ciencias de la Salud,Av San Martín 2002 - Florencio Varela - Buenos Aires ,"Universidad Nacional Arturo Jauretche, Instituto de Ciencias de la Salud",ARG,Buenos Aires,Florencio Varela,-58.2786386,-34.7963106
231,Universidad Nacional Arturo Jauretche,Instituto de Ciencias Sociales y Administración,Av San Martín 2002 - Florencio Varela - Buenos Aires ,"Universidad Nacional Arturo Jauretche, Instituto de Ciencias Sociales y Administración",ARG,Buenos Aires,Florencio Varela,-58.2786386,-34.7963106
232,Universidad Nacional Arturo Jauretche,Instituto de Ingeniería y Agronomía,Av San Martín 2002 - Florencio Varela - Buenos Aires ,"Universidad Nacional Arturo Jauretche, Instituto de Ingeniería y Agronomía",ARG,Buenos Aires,Florencio Varela,-58.2786386,-34.7963106
233,Universidad Nacional de Avellaneda,Departamento de Ambiente y Turismo,España 350 - Avellaneda - Buenos Aires ,"Universidad Nacional de Avellaneda, Departamento de Ambiente y Turismo",ARG,Buenos Aires,Avellaneda,-58.3722248,-34.6628049
234,Universidad Nacional de Avellaneda,Departamento de Humanidades y Artes,España 350 - Avellaneda - Buenos Aires ,"Universidad Nacional de Avellaneda, Departamento de Humanidades y Artes",ARG,Buenos Aires,Avellaneda,-58.3722248,-34.6628049
235,Universidad Nacional de Avellaneda,Departamento de Salud y Actividad Física,España 350 - Avellaneda - Buenos Aires ,"Universidad Nacional de Avellaneda, Departamento de Salud y Actividad Física",ARG,Buenos Aires,Avellaneda,-58.3722248,-34.6628049
236,Universidad Nacional de Avellaneda,"Departamento de Arquitectura, Diseño y Urbanismo",España 350 - Avellaneda - Buenos Aires ,"Universidad Nacional de Avellaneda, Departamento de Arquitectura, Diseño y Urbanismo",ARG,Buenos Aires,Avellaneda,-58.3722248,-34.6628049
237,Universidad Nacional de Avellaneda,Departamento de Ciencias Sociales,España 350 - Avellaneda - Buenos Aires ,"Universidad Nacional de Avellaneda, Departamento de Ciencias Sociales",ARG,Buenos Aires,Avellaneda,-58.3722248,-34.6628049
238,Universidad Nacional de Avellaneda,Departamento de Tecnología y Administración,España 350 - Avellaneda - Buenos Aires ,"Universidad Nacional de Avellaneda, Departamento de Tecnología y Administración",ARG,Buenos Aires,Avellaneda,-58.3722248,-34.6628049
239,Universidad Nacional de General Sarmiento,Instituto de Ciencias,Juan María Gutierrez 1150 1150 - Los Polvorines - Buenos Aires ,"Universidad Nacional de General Sarmiento, Instituto de Ciencias",ARG,Buenos Aires,Malvinas Argentinas,-58.7003265,-34.5208625
240,Universidad Nacional de General Sarmiento,Instituto de Industria,Juan María Gutierrez 1150 - Los Polvorines - Buenos Aires ,"Universidad Nacional de General Sarmiento, Instituto de Industria",ARG,Buenos Aires,Malvinas Argentinas,-58.7003265,-34.5208625
241,Universidad Nacional de General Sarmiento,Instituto del Conurbano,Juan María Gutierrez 1150 - Los Polvorines - Buenos Aires ,"Universidad Nacional de General Sarmiento, Instituto del Conurbano",ARG,Buenos Aires,Malvinas Argentinas,-58.7003265,-34.5208625
242,Universidad Nacional de General Sarmiento,Instituto del Desarrollo Humano,Juan María Gutierrez 1150 - Los Polvorines - Buenos Aires ,"Universidad Nacional de General Sarmiento, Instituto del Desarrollo Humano",ARG,Buenos Aires,Malvinas Argentinas,-58.7003265,-34.5208625
243,Universidad Nacional de Hurlingham,Instituto de Biotecnología,"Tte. Origone 151, Hurlingham, Buenos Aires","Universidad Nacional de Hurlingham, Instituto de Biotecnología",ARG,Buenos Aires,Hurlingham,-58.6369302,-34.6182799
244,Universidad Nacional de Hurlingham,Instituto de Educación,"Tte. Origone 151, Hurlingham, Buenos Aires","Universidad Nacional de Hurlingham, Instituto de Educación",ARG,Buenos Aires,Hurlingham,-58.6369302,-34.6182799
245,Universidad Nacional de Hurlingham,Instituto de Salud Comunitaria,"Tte. Origone 151, Hurlingham, Buenos Aires","Universidad Nacional de Hurlingham, Instituto de Salud Comunitaria",ARG,Buenos Aires,Hurlingham,-58.6369302,-34.6182799
246,Universidad Nacional de Hurlingham,Instituto de Tecnología e Ingeniería,"Tte. Origone 151, Hurlingham, Buenos Aires","Universidad Nacional de Hurlingham, Instituto de Tecnología e Ingeniería",ARG,Buenos Aires,Hurlingham,-58.6369302,-34.6182799
247,Universidad Nacional de La Matanza,Departamento de Ciencias de la Salud,F.Varela 1903 - Villa Luzuriaga - Buenos Aires ,"Universidad Nacional de La Matanza, Departamento de Ciencias de la Salud",ARG,Ciudad Autónoma de Buenos Aires,Ciudad de Buenos Aires,-58.38681,-34.6582427
248,Universidad Nacional de La Matanza,Departamento de Ciencias Económicas,F.Varela 1903 - Villa Luzuriaga - Buenos Aires ,"Universidad Nacional de La Matanza, Departamento de Ciencias Económicas",ARG,Ciudad Autónoma de Buenos Aires,Ciudad de Buenos Aires,-58.38681,-34.6582427
249,Universidad Nacional de La Matanza,Departamento de Derecho y Ciencia Política,F.Varela 1903 - Villa Luzuriaga - Buenos Aires ,"Universidad Nacional de La Matanza, Departamento de Derecho y Ciencia Política",ARG,Ciudad Autónoma de Buenos Aires,Ciudad de Buenos Aires,-58.38681,-34.6582427
250,Universidad Nacional de La Matanza,Departamento de Humanidades y Ciencias Sociales,F.Varela 1903 - Villa Luzuriaga - Buenos Aires ,"Universidad Nacional de La Matanza, Departamento de Humanidades y Ciencias Sociales",ARG,Ciudad Autónoma de Buenos Aires,Ciudad de Buenos Aires,-58.38681,-34.6582427
251,Universidad Nacional de La Matanza,Departamento de Ingeniería e Investigaciones Tecnológicas,F.Varela 1903 - Villa Luzuriaga - Buenos Aires ,"Universidad Nacional de La Matanza, Departamento de Ingeniería e Investigaciones Tecnológicas",ARG,Ciudad Autónoma de Buenos Aires,Ciudad de Buenos Aires,-58.38681,-34.6582427
252,Universidad Nacional de La Matanza,Escuela de Formación Continua,F.Varela 1903 - Villa Luzuriaga - Buenos Aires ,"Universidad Nacional de La Matanza, Escuela de Formación Continua",ARG,Ciudad Autónoma de Buenos Aires,Ciudad de Buenos Aires,-58.38681,-34.6582427
253,Universidad Nacional de La Matanza,Escuela de Postgrado,F.Varela 1903 - Villa Luzuriaga - Buenos Aires ,"Universidad Nacional de La Matanza, Escuela de Postgrado",ARG,Ciudad Autónoma de Buenos Aires,Ciudad de Buenos Aires,-58.38681,-34.6582427
254,Universidad Nacional de La Plata,Facultad de Ciencias Naturales y Museo,60 y 122 - - La Plata - Buenos Aires ,"Universidad Nacional de La Plata, Facultad de Ciencias Naturales y Museo",ARG,Buenos Aires,La Plata,-57.9316786,-34.911932
255,Universidad Nacional de La Plata,Facultad de Psicología,51 entre 123 y 124 - - Ensenada - Buenos Aires ,"Universidad Nacional de La Plata, Facultad de Psicología",ARG,Buenos Aires,Ensenada,-57.9549852,-34.8843448
256,Universidad Nacional de La Plata,Facultad de Informática,calle 50 esq 120 - - La Plata - Buenos Aires ,"Universidad Nacional de La Plata, Facultad de Informática",ARG,Buenos Aires,La Plata,-57.9400074,-34.9059812
257,Universidad Nacional de La Plata,Facultad de Ingeniería,1 y 47 - - La Plata - Buenos Aires ,"Universidad Nacional de La Plata, Facultad de Ingeniería",ARG,Buenos Aires,La Plata,-57.9386198,-34.8995898
258,Universidad Nacional de La Plata,Facultad de Ciencias Exactas,115 y 47 - - La Plata - Buenos Aires ,"Universidad Nacional de La Plata, Facultad de Ciencias Exactas",ARG,Buenos Aires,La Plata,-58.0825936,-34.8478691
259,Universidad Nacional de La Plata,Facultad de Odontología,1 y 50 - - La Plata - Buenos Aires ,"Universidad Nacional de La Plata, Facultad de Odontología",ARG,Buenos Aires,La Plata,-57.9353,-34.9016396
260,Universidad Nacional de La Plata,Facultad de Ciencias Jurídicas y Sociales,48 e/ 6 y 7 - - La Plata - Buenos Aires ,"Universidad Nacional de La Plata, Facultad de Ciencias Jurídicas y Sociales",ARG,Buenos Aires,La Plata,-57.9668758,-34.9003139
261,Universidad Nacional de La Plata,Facultad de Ciencias Económicas,6 Nro 777 - La Plata - Buenos Aires ,"Universidad Nacional de La Plata, Facultad de Ciencias Económicas",ARG,Buenos Aires,La Plata,-58.13752,-35.0474
262,Universidad Nacional de La Plata,Facultad de Ciencias Médicas,60 y 118 - - La Plata - Buenos Aires ,"Universidad Nacional de La Plata, Facultad de Ciencias Médicas",ARG,Buenos Aires,La Plata,-57.956792,-34.892548
263,Universidad Nacional de La Plata,Facultad de Ciencias Veterinarias,60 y 118 - - La Plata - Buenos Aires ,"Universidad Nacional de La Plata, Facultad de Ciencias Veterinarias",ARG,Buenos Aires,La Plata,-57.956792,-34.892548
264,Universidad Nacional de La Plata,Facultad de Trabajo Social,Calle 9 esq. 63 - - La Plata - Buenos Aires ,"Universidad Nacional de La Plata, Facultad de Trabajo Social",ARG,Buenos Aires,La Plata,-57.9694609,-34.9035648
265,Universidad Nacional de La Plata,Facultad de Arquitectura y Urbanismo,Calle 47 (esq 117) 162 - La Plata - Buenos Aires ,"Universidad Nacional de La Plata, Facultad de Arquitectura y Urbanismo",ARG,Buenos Aires,La Plata,-57.94267,-34.905
266,Universidad Nacional de La Plata,Escuela Universitaria de Recursos Humanos del Equipo de Salud,Calle 12 y 161 Piso 3 - Berisso - Buenos Aires ,"Universidad Nacional de La Plata, Escuela Universitaria de Recursos Humanos del Equipo de Salud",ARG,Buenos Aires,Berisso,-57.9155497,-34.9143696
267,Universidad Nacional de La Plata,Facultad de Bellas Artes,"Diagonal 78 680, La Plata, Buenos Aires","Universidad Nacional de La Plata, Facultad de Bellas Artes",ARG,Buenos Aires,La Plata,-57.941762,-34.9222116
268,Universidad Nacional de La Plata,Facultad de Ciencias Agrarias y Forestales,"0, Casco Urbano, La Plata, Buenos Aires","Universidad Nacional de La Plata, Facultad de Ciencias Agrarias y Forestales",ARG,Buenos Aires,La Plata,-57.94635,-34.91392
269,Universidad Nacional de La Plata,Facultad de Ciencias Astronómicas y Geofísicas,"aseo del Bosque s/n, FWA, B1900 La Plata, Pcia de Buenos Aires","Universidad Nacional de La Plata, Facultad de Ciencias Astronómicas y Geofísicas",ARG,Buenos Aires,La Plata,-57.94635,-34.91392
270,Universidad Nacional de La Plata,Facultad de Humanidades y Ciencias de la Educación,51 entre 123 y 124 - - Ensenada - Buenos Aires ,"Universidad Nacional de La Plata, Facultad de Humanidades y Ciencias de la Educación",ARG,Buenos Aires,Ensenada,-57.9549852,-34.8843448
271,Universidad Nacional de La Plata,Facultad de Informática e Ingeniería,calle 50 esq 120 - - La Plata - Buenos Aires ,"Universidad Nacional de La Plata, Facultad de Informática e Ingeniería",ARG,Buenos Aires,La Plata,-57.9400074,-34.9059812
272,Universidad Nacional de La Plata,Facultad de Periodismo y Comunicación Social,"iagonal 113 291, Casco Urbano, B1900 La Plata, Pcia de Buenos Aires, Argentina","Universidad Nacional de La Plata, Facultad de Periodismo y Comunicación Social",ARG,Buenos Aires,La Plata,-57.9269551,-34.912875
273,Universidad Nacional de Lanús,Departamento de Desarrollo Productivo y Tecnológico,29 de Septiembre 3901 - Remedios de Escalada - Buenos Aires ,"Universidad Nacional de Lanús, Departamento de Desarrollo Productivo y Tecnológico",ARG,Buenos Aires,Lanús,-58.3901502,-34.7342286
274,Universidad Nacional de Lanús,Departamento de Humanidades y Artes,29 de Septiembre 3901 - Remedios de Escalada - Buenos Aires ,"Universidad Nacional de Lanús, Departamento de Humanidades y Artes",ARG,Buenos Aires,Lanús,-58.3901502,-34.7342286
275,Universidad Nacional de Lanús,Departamento de Planificación y Políticas Públicas,29 de Septiembre 3901 - Remedios de Escalada - Buenos Aires ,"Universidad Nacional de Lanús, Departamento de Planificación y Políticas Públicas",ARG,Buenos Aires,Lanús,-58.3901502,-34.7342286
276,Universidad Nacional de Lanús,Departamento de Salud Comunitaria,29 de Septiembre 3901 - Remedios de Escalada - Buenos Aires ,"Universidad Nacional de Lanús, Departamento de Salud Comunitaria",ARG,Buenos Aires,Lanús,-58.3901502,-34.7342286
277,Universidad Nacional de Lanús,Rectorado,29 de Septiembre 3901 - Remedios de Escalada - Buenos Aires ,"Universidad Nacional de Lanús, Rectorado",ARG,Buenos Aires,Lanús,-58.3901502,-34.7342286
278,Universidad Nacional de Lanús,Vicerrectorado,29 de Septiembre 3901 - Remedios de Escalada - Buenos Aires ,"Universidad Nacional de Lanús, Vicerrectorado",ARG,Buenos Aires,Lanús,-58.3901502,-34.7342286
279,Universidad Nacional de las Artes,Área Transdepartamental de Artes Multimediales,Av. Don Pedro de Mendoza 679 - Ciudad Autonoma de Buenos Aires - Ciudad Autonoma de Buenos Aires ,"Universidad Nacional de las Artes, Área Transdepartamental de Artes Multimediales",ARG,Ciudad Autónoma de Buenos Aires,Ciudad de Buenos Aires,-58.3551303,-34.6293037
280,Universidad Nacional de las Artes,Departamento de Artes Dramáticas,French 3614 - Ciudad Autonoma de Buenos Aires - Ciudad Autonoma de Buenos Aires ,"Universidad Nacional de las Artes, Departamento de Artes Dramáticas",ARG,Ciudad Autónoma de Buenos Aires,Ciudad de Buenos Aires,-58.41166,-34.58308
281,Universidad Nacional de las Artes,Departamento de Artes Audiovisuales,Rocamora 4141 - Ciudad Autonoma de Buenos Aires - Ciudad Autonoma de Buenos Aires ,"Universidad Nacional de las Artes, Departamento de Artes Audiovisuales",ARG,Ciudad Autónoma de Buenos Aires,Ciudad de Buenos Aires,-58.42267,-34.59927
282,Universidad Nacional de las Artes,Departamento de Artes del Movimiento,Sanchez de Loria 443 - Ciudad Autonoma de Buenos Aires - Ciudad Autonoma de Buenos Aires ,"Universidad Nacional de las Artes, Departamento de Artes del Movimiento",ARG,Ciudad Autónoma de Buenos Aires,Ciudad de Buenos Aires,-58.41285,-34.61474
283,Universidad Nacional de las Artes,Área Transdepartamental de Crítica de Artes,Bartolomé Mitre 1869 - Ciudad Autonoma de Buenos Aires - Ciudad Autonoma de Buenos Aires ,"Universidad Nacional de las Artes, Área Transdepartamental de Crítica de Artes",ARG,Ciudad Autónoma de Buenos Aires,Ciudad de Buenos Aires,-58.39301,-34.60806
284,Universidad Nacional de las Artes,Departamento de Artes Visuales,Bartolomé Mitre 1869 - Ciudad Autonoma de Buenos Aires - Ciudad Autonoma de Buenos Aires ,"Universidad Nacional de las Artes, Departamento de Artes Visuales",ARG,Ciudad Autónoma de Buenos Aires,Ciudad de Buenos Aires,-58.39301,-34.60806
285,Universidad Nacional de las Artes,Área transdepartamental de Formación Docente,Bolívar 1674 - Ciudad Autonoma de Buenos Aires - Ciudad Autonoma de Buenos Aires ,"Universidad Nacional de las Artes, Área transdepartamental de Formación Docente",ARG,Ciudad Autónoma de Buenos Aires,Ciudad de Buenos Aires,-58.3724,-34.62788
286,Universidad Nacional de las Artes,Departamento de Artes Musicales y Sonoras,Avda Cordoba 2445 - Ciudad Autonoma de Buenos Aires - Ciudad Autonoma de Buenos Aires ,"Universidad Nacional de las Artes, Departamento de Artes Musicales y Sonoras",ARG,Ciudad Autónoma de Buenos Aires,Ciudad de Buenos Aires,-58.40186,-34.5994
287,Universidad Nacional de las Artes,Área transdepartamental de Folklore,Sanchez de Loria 443 - Ciudad Autonoma de Buenos Aires - Ciudad Autonoma de Buenos Aires ,"Universidad Nacional de las Artes, Área transdepartamental de Folklore",ARG,Ciudad Autónoma de Buenos Aires,Ciudad de Buenos Aires,-58.41285,-34.61474
288,Universidad Nacional de Luján,Delegación Académica Capital Federal,Ecuador 873 - Ciudad Autonoma de Buenos Aires - Ciudad Autonoma de Buenos Aires ,"Universidad Nacional de Luján, Delegación Académica Capital Federal",ARG,Ciudad Autónoma de Buenos Aires,Ciudad de Buenos Aires,-58.40641,-34.60007
289,Universidad Nacional de Luján,Centro Regional San Miguel,Farias 1590 - San Miguel - Buenos Aires ,"Universidad Nacional de Luján, Centro Regional San Miguel",ARG,Buenos Aires,San Miguel,-58.7456752,-34.5736024
290,Universidad Nacional de Luján,Delegación Académica San Fernando,Av. del Libertador 1700 - San Fernando - Buenos Aires ,"Universidad Nacional de Luján, Delegación Académica San Fernando",ARG,Buenos Aires,San Fernando,-58.53662,-34.44856
291,Universidad Nacional de Luján,Centro Regional Campana,"icente López, Bertolini y, B2804 Campana, Provincia de Buenos Aires, Argentina","Universidad Nacional de Luján, Centro Regional Campana",ARG,Buenos Aires,Campana,-58.94717,-34.18053
292,Universidad Nacional de Luján,Rectorado Sede Central,"venida Constitución, Ruta 5, B6702 Gran Buenos Aires, Pcia de Buenos Aires, Argentina","Universidad Nacional de Luján, Rectorado Sede Central",ARG,Buenos Aires,Merlo,-58.727088,-34.6784
293,Universidad Nacional de Moreno,Departamento de Ciencias Aplicadas y Tecnologías,Av. Bartolomé Mitre 1891 - Moreno - Buenos Aires ,"Universidad Nacional de Moreno, Departamento de Ciencias Aplicadas y Tecnologías",ARG,Buenos Aires,Moreno,-58.7772034,-34.65254
294,Universidad Nacional de Moreno,Departamento de Economía y Administración,Av. Bartolomé Mitre 1891 - Moreno - Buenos Aires ,"Universidad Nacional de Moreno, Departamento de Economía y Administración",ARG,Buenos Aires,Moreno,-58.7772034,-34.65254
295,Universidad Nacional de Moreno,Departamento de Humanidades y Ciencias Sociales,Av. Bartolomé Mitre 1891 - Moreno - Buenos Aires ,"Universidad Nacional de Moreno, Departamento de Humanidades y Ciencias Sociales",ARG,Buenos Aires,Moreno,-58.7772034,-34.65254
296,Universidad Nacional de Quilmes,Departamento de Ciencias Sociales,Roque Sáenz Peña 352 - Bernal - Buenos Aires ,"Universidad Nacional de Quilmes, Departamento de Ciencias Sociales",ARG,Buenos Aires,Quilmes,-58.27705,-34.70629
297,Universidad Nacional de Quilmes,Departamento de Ciencia y Tecnología,Roque Sáenz Peña 352 - Bernal - Buenos Aires ,"Universidad Nacional de Quilmes, Departamento de Ciencia y Tecnología",ARG,Buenos Aires,Quilmes,-58.27705,-34.70629
298,Universidad Nacional de Quilmes,Departamento de Economía y Administración,Roque Sáenz Peña 352 - Bernal - Buenos Aires ,"Universidad Nacional de Quilmes, Departamento de Economía y Administración",ARG,Buenos Aires,Quilmes,-58.27705,-34.70629
299,Universidad Nacional de Quilmes,Secretaria de Posgrado,Roque Saenz Peña 352 - Bernal - Buenos Aires ,"Universidad Nacional de Quilmes, Secretaria de Posgrado",ARG,Buenos Aires,Quilmes,-58.27705,-34.70629
300,Universidad Nacional de San Martín,Escuela de Economía y Negocios - San Martín,Caseros 2253 – San Martin - Buenos Aires ,"Universidad Nacional de San Martín, Escuela de Economía y Negocios - San Martín",ARG,Buenos Aires,San Martin,-58.5422312,-34.5769045
301,Universidad Nacional de San Martín,Instituto de Investigación e Ingeniería Ambiental,Belgrano 3563 - Barrio Gral. San Martin - Buenos Aires ,"Universidad Nacional de San Martín, Instituto de Investigación e Ingeniería Ambiental",ARG,Buenos Aires,San Martín,-58.5381015,-34.5761961
302,Universidad Nacional de San Martín,Escuela de Ciencia y Tecnología,Irigoyen 3100 - Barrio Gral. San Martin - Buenos Aires ,"Universidad Nacional de San Martín, Escuela de Ciencia y Tecnología",ARG,Buenos Aires,San Martín,-58.5335759,-34.5773836
303,Universidad Nacional de San Martín,Escuela de Humanidades - Migueletes,Irigoyen 3100 - Barrio Gral. San Martin - Buenos Aires ,"Universidad Nacional de San Martín, Escuela de Humanidades - Migueletes",ARG,Buenos Aires,San Martín,-58.5335759,-34.5773836
304,Universidad Nacional de San Martín,Escuela de Política y Gobierno,Irigoyen 3100 - Barrio Gral. San Martin - Buenos Aires ,"Universidad Nacional de San Martín, Escuela de Política y Gobierno",ARG,Buenos Aires,San Martín,-58.5335759,-34.5773836
305,Universidad Nacional de San Martín,Instituto de Altos Estudios Sociales,Irigoyen 3100 - Barrio Gral. San Martin - Buenos Aires ,"Universidad Nacional de San Martín, Instituto de Altos Estudios Sociales",ARG,Buenos Aires,San Martín,-58.5335759,-34.5773836
306,Universidad Nacional de San Martín,Instituto de Investigaciones Biotecnológicas,Avda. Gral Paz 5445 - Barrio Gral. San Martin - Buenos Aires ,"Universidad Nacional de San Martín, Instituto de Investigaciones Biotecnológicas",ARG,Ciudad Autónoma de Buenos Aires,Ciudad de Buenos Aires,-58.37387,-34.60328
307,Universidad Nacional de San Martín,Instituto de la Calidad Industrial,Avda. Gral Paz 5445 - Barrio Gral. San Martin - Buenos Aires ,"Universidad Nacional de San Martín, Instituto de la Calidad Industrial",ARG,Ciudad Autónoma de Buenos Aires,Ciudad de Buenos Aires,-58.37387,-34.60328
308,Universidad Nacional de San Martín,Instituto de Tecnología Nuclear Dan Beninson,Avda. Gral Paz 1499 - Barrio Gral. San Martin - Buenos Aires ,"Universidad Nacional de San Martín, Instituto de Tecnología Nuclear Dan Beninson",ARG,Ciudad Autónoma de Buenos Aires,Ciudad de Buenos Aires,-58.371085,-34.590545
309,Universidad Nacional de San Martín,Instituto de Tecnología Prof. Jorge Sábato,Avda. Gral Paz 1499 - Barrio Gral. San Martin - Buenos Aires ,"Universidad Nacional de San Martín, Instituto de Tecnología Prof. Jorge Sábato",ARG,Ciudad Autónoma de Buenos Aires,Ciudad de Buenos Aires,-58.371085,-34.590545
310,Universidad Nacional de San Martín,Instituto de Investigaciones sobre el Patrimonio Cultural,Benito Quinquela Martín 1784 - Ciudad Autonoma de Buenos Aires - Ciudad Autonoma de Buenos Aires ,"Universidad Nacional de San Martín, Instituto de Investigaciones sobre el Patrimonio Cultural",ARG,Ciudad Autónoma de Buenos Aires,Ciudad de Buenos Aires,-58.37487,-34.6439
311,Universidad Nacional de San Martín,Instituto de Ciencias de la Rehabilitación y el Movimiento,Dragones 2201 - Ciudad Autonoma de Buenos Aires - Ciudad Autonoma de Buenos Aires ,"Universidad Nacional de San Martín, Instituto de Ciencias de la Rehabilitación y el Movimiento",ARG,Ciudad Autónoma de Buenos Aires,Ciudad de Buenos Aires,-58.4417878,-34.551954
312,Universidad Nacional de San Martín,Escuela de Humanidades - Centro,Av. Roque Sáenz Peña 832 - Ciudad Autonoma de Buenos Aires - Ciudad Autonoma de Buenos Aires ,"Universidad Nacional de San Martín, Escuela de Humanidades - Centro",ARG,Ciudad Autónoma de Buenos Aires,Ciudad de Buenos Aires,-58.37839,-34.6054
313,Universidad Nacional de San Martín,Escuela de Economía y Negocios - San Isidro,Caseros 2241 - San Isidro - Buenos Aires ,"Universidad Nacional de San Martín, Escuela de Economía y Negocios - San Isidro",ARG,Buenos Aires,San Isidro,-58.51002,-34.46128
314,Universidad Nacional de San Martín,Instituto de Arquitectura y Urbanismo,Irigoyen 3100 - Barrio Gral. San Martin - Buenos Aires ,"Universidad Nacional de San Martín, Instituto de Arquitectura y Urbanismo",ARG,Buenos Aires,San Martín,-58.5335759,-34.5773836
315,Universidad Nacional de San Martín,Instituto de Artes Mauricio Kagel,Irigoyen 3100 - Barrio Gral. San Martin - Buenos Aires ,"Universidad Nacional de San Martín, Instituto de Artes Mauricio Kagel",ARG,Buenos Aires,San Martín,-58.5335759,-34.5773836
316,Universidad Nacional de San Martín,Instituto del Transporte,Irigoyen 3100 - Barrio Gral. San Martin - Buenos Aires ,"Universidad Nacional de San Martín, Instituto del Transporte",ARG,Buenos Aires,San Martín,-58.5335759,-34.5773836
317,Universidad Nacional de San Martín,Unidad Interdisciplinaria de Salud,Irigoyen 3100 - Barrio Gral. San Martin - Buenos Aires ,"Universidad Nacional de San Martín, Unidad Interdisciplinaria de Salud",ARG,Buenos Aires,San Martín,-58.5335759,-34.5773836
318,Universidad Nacional de San Martín,Instituto de Estudios en Ciencias Jurídicas,Irigoyen 3100 - Barrio Gral. San Martin - Buenos Aires ,"Universidad Nacional de San Martín, Instituto de Estudios en Ciencias Jurídicas",ARG,Buenos Aires,San Martín,-58.5335759,-34.5773836
319,Universidad Nacional de Tres de Febrero,Dirección Académica de Postgrados,Viamonte 525 - Ciudad Autonoma de Buenos Aires - Ciudad Autonoma de Buenos Aires ,"Universidad Nacional de Tres de Febrero, Dirección Académica de Postgrados",ARG,Ciudad Autónoma de Buenos Aires,Ciudad de Buenos Aires,-58.37431,-34.59981
320,Universidad Nacional de Tres de Febrero,Secretaría Académica,"Valentín Gómez 4828/38, Caseros, Pcia de Buenos Aires, Argentina","Universidad Nacional de Tres de Febrero, Secretaría Académica",ARG,Buenos Aires,3 de Febrero,-58.564289,-34.6049368
321,Universidad Nacional del Oeste,Escuela de Humanidades,Centenario 1399 - Merlo - Buenos Aires ,"Universidad Nacional del Oeste, Escuela de Humanidades",ARG,Buenos Aires,Merlo,-58.6997501,-34.6730399
322,Universidad Nacional del Oeste,Escuela de Ciencias de la Salud,Córdoba 1055 - Merlo - Buenos Aires ,"Universidad Nacional del Oeste, Escuela de Ciencias de la Salud",ARG,Buenos Aires,Merlo,-58.7338929,-34.6644588
323,Universidad Nacional del Oeste,Escuela de informática,Córdoba 1055 - Merlo - Buenos Aires ,"Universidad Nacional del Oeste, Escuela de informática",ARG,Buenos Aires,Merlo,-58.7338929,-34.6644588
324,Universidad Nacional del Oeste,Escuela de Ingeniería,Córdoba 1055 - Merlo - Buenos Aires ,"Universidad Nacional del Oeste, Escuela de Ingeniería",ARG,Buenos Aires,Merlo,-58.7338929,-34.6644588
325,Universidad Nacional del Oeste,Escuela de Administración,Centenario 1399 - Merlo - Buenos Aires ,"Universidad Nacional del Oeste, Escuela de Administración",ARG,Buenos Aires,Merlo,-58.6997501,-34.6730399
326,Universidad Nacional José C. Paz,Departamento de Ciencias de la Salud y el Deporte,Leandro N. Alem 4731 - Jose C Paz - Buenos Aires ,"Universidad Nacional José C. Paz, Departamento de Ciencias de la Salud y el Deporte",ARG,Buenos Aires,General Sarmiento,-58.7476175,-34.5208105
327,Universidad Nacional José C. Paz,Departamento de Ciencias Jurídicas y Sociales,Leandro N. Alem 4731 - Jose C Paz - Buenos Aires ,"Universidad Nacional José C. Paz, Departamento de Ciencias Jurídicas y Sociales",ARG,Buenos Aires,General Sarmiento,-58.7476175,-34.5208105
328,Universidad Nacional José C. Paz,"Departamento de Economía, Producción e Innovación Tecnológica",Leandro N. Alem 4731 - Jose C Paz - Buenos Aires ,"Universidad Nacional José C. Paz, Departamento de Economía, Producción e Innovación Tecnológica",ARG,Buenos Aires,General Sarmiento,-58.7476175,-34.5208105
329,Universidad Notarial Argentina,Universidad Notarial Argentina,Calle 51 435 - La Plata - Buenos Aires ,"Universidad Notarial Argentina, Universidad Notarial Argentina",ARG,Buenos Aires,La Plata,-58.0878855,-34.8495338
330,Universidad Provincial de Ezeiza,Departamento de Desarrollo Aeroportuario,Alfonsina Storni 41 - Ezeiza - Buenos Aires ,"Universidad Provincial de Ezeiza, Departamento de Desarrollo Aeroportuario",ARG,Buenos Aires,Ezeiza,-58.5254058,-34.7892088
331,Universidad Provincial de Ezeiza,Departamento de Desarrollo Humano y Organizacional,Alfonsina Storni 41 - Ezeiza - Buenos Aires ,"Universidad Provincial de Ezeiza, Departamento de Desarrollo Humano y Organizacional",ARG,Buenos Aires,Ezeiza,-58.5254058,-34.7892088
332,Universidad Provincial de Ezeiza,Departamento de Desarrollo Tecnológico,Alfonsina Storni 41 - Ezeiza - Buenos Aires ,"Universidad Provincial de Ezeiza, Departamento de Desarrollo Tecnológico",ARG,Buenos Aires,Ezeiza,-58.5254058,-34.7892088
333,Universidad Tecnológica Nacional,Facultad Regional Delta,San Martín 1171 - Campana - Buenos Aires ,"Universidad Tecnológica Nacional, Facultad Regional Delta",ARG,Buenos Aires,Campana,-58.9618508,-34.1787535
334,Universidad Tecnológica Nacional,Facultad Regional General Pacheco,Hipólito Yrigoyen 288 - Gral. Pacheco - Buenos Aires ,"Universidad Tecnológica Nacional, Facultad Regional General Pacheco",ARG,Buenos Aires,Tigre,-58.623981,-34.456677
335,Universidad Tecnológica Nacional,Facultad Regional Haedo,París 532 - Haedo - Buenos Aires ,"Universidad Tecnológica Nacional, Facultad Regional Haedo",ARG,Buenos Aires,Morón,-58.6014921,-34.6404207
336,Universidad Tecnológica Nacional,Facultad Regional Avellaneda,Ramón Franco 5050 - Villa Dominico - Buenos Aires ,"Universidad Tecnológica Nacional, Facultad Regional Avellaneda",ARG,Buenos Aires,Avellaneda,-58.327523,-34.694951
337,Universidad Tecnológica Nacional,Facultad Regional Buenos Aires,Medrano 951 - Ciudad Autonoma de Buenos Aires - Ciudad Autonoma de Buenos Aires ,"Universidad Tecnológica Nacional, Facultad Regional Buenos Aires",ARG,Ciudad Autónoma de Buenos Aires,Ciudad de Buenos Aires,-58.44631,-34.68477
338,Universidad Torcuato Di Tella,Departamento de Ciencia Política y Estudios Internacionales,Av. Figueroa Alcorta 7350 - Ciudad Autonoma de Buenos Aires - Ciudad Autonoma de Buenos Aires ,"Universidad Torcuato Di Tella, Departamento de Ciencia Política y Estudios Internacionales",ARG,Ciudad Autónoma de Buenos Aires,Ciudad de Buenos Aires,-58.37344,-34.6085
339,Universidad Torcuato Di Tella,Departamento de Economía,Av. Figueroa Alcorta 7350 - Ciudad Autonoma de Buenos Aires - Ciudad Autonoma de Buenos Aires ,"Universidad Torcuato Di Tella, Departamento de Economía",ARG,Ciudad Autónoma de Buenos Aires,Ciudad de Buenos Aires,-58.37344,-34.6085
340,Universidad Torcuato Di Tella,Departamento de Historia,Av. Figueroa Alcorta 7350 - Ciudad Autonoma de Buenos Aires - Ciudad Autonoma de Buenos Aires ,"Universidad Torcuato Di Tella, Departamento de Historia",ARG,Ciudad Autónoma de Buenos Aires,Ciudad de Buenos Aires,-58.37344,-34.6085
341,Universidad Torcuato Di Tella,Escuela de Arquitectura y Estudios Urbanos,Av. Figueroa Alcorta 7350 - Ciudad Autonoma de Buenos Aires - Ciudad Autonoma de Buenos Aires ,"Universidad Torcuato Di Tella, Escuela de Arquitectura y Estudios Urbanos",ARG,Ciudad Autónoma de Buenos Aires,Ciudad de Buenos Aires,-58.37344,-34.6085
342,Universidad Torcuato Di Tella,Escuela de Derecho,Av. Figueroa Alcorta 7350 - Ciudad Autonoma de Buenos Aires - Ciudad Autonoma de Buenos Aires ,"Universidad Torcuato Di Tella, Escuela de Derecho",ARG,Ciudad Autónoma de Buenos Aires,Ciudad de Buenos Aires,-58.37344,-34.6085
343,Universidad Torcuato Di Tella,Escuela de Gobierno,Av. Figueroa Alcorta 7350 - Ciudad Autonoma de Buenos Aires - Ciudad Autonoma de Buenos Aires ,"Universidad Torcuato Di Tella, Escuela de Gobierno",ARG,Ciudad Autónoma de Buenos Aires,Ciudad de Buenos Aires,-58.37344,-34.6085
344,Universidad Torcuato Di Tella,Escuela de Negocios,Av. Figueroa Alcorta 7350 - Ciudad Autonoma de Buenos Aires - Ciudad Autonoma de Buenos Aires ,"Universidad Torcuato Di Tella, Escuela de Negocios",ARG,Ciudad Autónoma de Buenos Aires,Ciudad de Buenos Aires,-58.37344,-34.6085
